administrativeTeritorialUnit;communityType;nameAdministrativeTeritorialUnit;COATUU;nameMedicalInstitution;nameObject;typeInstitution;locality;nameLocality;street;nameStreet;houseNumber
територіальна громада;міська;Лиманська;1413300000;Комунальне некомерційне підприємство «Центр первинної медико-санітарної допомоги Лиманської міської ради»;Міська АЗПСМ;АГ;місто;Лиман;вулиця;Незалежності;64-а
територіальна громада;міська;Лиманська;1413300000;Комунальне некомерційне підприємство «Центр первинної медико-санітарної допомоги Лиманської міської ради»;АЗСМ Заводська;АМ;місто;Лиман;вулиця;Театральна;3-а
територіальна громада;міська;Лиманська;1413300000;Комунальне некомерційне підприємство «Центр первинної медико-санітарної допомоги Лиманської міської ради»;АЗПСМ мікрорайону «Південний»;АГ;місто;Лиман;вулиця;К. Гасієва;36-а
територіальна громада;міська;Лиманська;1413300000;Комунальне некомерційне підприємство «Центр первинної медико-санітарної допомоги Лиманської міської ради»;АЗПСМ мікрорайону «Північний»;АМ;місто;Лиман;вулиця;Петропавлівська;72
територіальна громада;міська;Лиманська;1413300000;Комунальне некомерційне підприємство «Центр первинної медико-санітарної допомоги Лиманської міської ради»;АЗПСМ смт Дробишеве;АМ;селище міського типу;Дробишеве;вулиця;Державна;115
територіальна громада;міська;Лиманська;1413300000;Комунальне некомерційне підприємство «Центр первинної медико-санітарної допомоги Лиманської міської ради»;ФП смт Дробишеве;ФП;селище міського типу;Дробишеве;вулиця;Полухіна;4
територіальна громада;міська;Лиманська;1413300000;Комунальне некомерційне підприємство «Центр первинної медико-санітарної допомоги Лиманської міської ради»;ФП с. Щурове;ФП;село;Щурове;вулиця;Лозова;1
територіальна громада;міська;Лиманська;1413300000;Комунальне некомерційне підприємство «Центр первинної медико-санітарної допомоги Лиманської міської ради»;ФП с. Старий Караван;ФП;село;Старий Караван;вулиця;Клубна;12
територіальна громада;міська;Лиманська;1413300000;Комунальне некомерційне підприємство «Центр первинної медико-санітарної допомоги Лиманської міської ради»;ФП с. Діброва;ФП;село;Діброва;вулиця;Шевченко;11
територіальна громада;міська;Лиманська;1413300000;Комунальне некомерційне підприємство «Центр первинної медико-санітарної допомоги Лиманської міської ради»;ФП с-ще Ставки;ФП;селище;Ставки;вулиця;Шевченко;27
територіальна громада;міська;Лиманська;1413300000;Комунальне некомерційне підприємство «Центр первинної медико-санітарної допомоги Лиманської міської ради»;АЗПСМ смт Зарічне;АМ;селище міського типу;Зарічне;вулиця;Центральна;104
територіальна громада;міська;Лиманська;1413300000;Комунальне некомерційне підприємство «Центр первинної медико-санітарної допомоги Лиманської міської ради»;АЗПСМ с. Торське;АМ;село;Торське;вулиця;Центральна;80
територіальна громада;міська;Лиманська;1413300000;Комунальне некомерційне підприємство «Центр первинної медико-санітарної допомоги Лиманської міської ради»;ФП с. Колодязі;ФП;село;Колодязі;вулиця;Шевченко;61
територіальна громада;міська;Лиманська;1413300000;Комунальне некомерційне підприємство «Центр первинної медико-санітарної допомоги Лиманської міської ради»;ФП с. Терни;ФП;село;Терни;вулиця;Бордюгова;2-а
територіальна громада;міська;Лиманська;1413300000;Комунальне некомерційне підприємство «Центр первинної медико-санітарної допомоги Лиманської міської ради»;ФП с. Ямполівка;ФП;село;Ямполівка;вулиця;Центральна;36-а
територіальна громада;міська;Лиманська;1413300000;Комунальне некомерційне підприємство «Центр первинної медико-санітарної допомоги Лиманської міської ради»;АЗПСМ смт Ямпіль;АМ;селище міського типу;Ямпіль;вулиця;Донецька;16
територіальна громада;міська;Лиманська;1413300000;Комунальне некомерційне підприємство «Центр первинної медико-санітарної допомоги Лиманської міської ради»;ФП с. Закітне;ФП;село;Закітне;вулиця;Піонерський;1
територіальна громада;міська;Лиманська;1413300000;Комунальне некомерційне підприємство «Центр первинної медико-санітарної допомоги Лиманської міської ради»;ФП с. Крива Лука;ФП;село;Крива Лука;вулиця;Центральна;27
територіальна громада;міська;Лиманська;1413300000;Комунальне некомерційне підприємство «Центр первинної медико-санітарної допомоги Лиманської міської ради»;ФП с. Озерне;ФП;село;Озерне;вулиця;Курортна;3-а
територіальна громада;міська;Лиманська;1413300000;Комунальне некомерційне підприємство «Центр первинної медико-санітарної допомоги Лиманської міської ради»;АЗПСМ смт Ярова;АМ;селище міського типу;Ярова;вулиця;Донецька;21
територіальна громада;міська;Лиманська;1413300000;Комунальне некомерційне підприємство «Центр первинної медико-санітарної допомоги Лиманської міської ради»;АЗПСМ смт Новоселівка;АМ;селище міського типу;Новоселівка;вулиця;Партизанська;8
територіальна громада;міська;Лиманська;1413300000;Комунальне некомерційне підприємство «Центр первинної медико-санітарної допомоги Лиманської міської ради»;ФП с. Олександрівка;ФП;село;Олександрівка;вулиця;Садова;4-а
територіальна громада;міська;Лиманська;1413300000;Комунальне некомерційне підприємство «Центр первинної медико-санітарної допомоги Лиманської міської ради»;АЗПСМ с. Рубці;АМ;село;Рубці;вулиця;8 Березня;19-а
територіальна громада;міська;Лиманська;1413300000;Комунальне некомерційне підприємство «Центр первинної медико-санітарної допомоги Лиманської міської ради»;ФП с. Яцьківка;ФП;село;Яцьківка;вулиця;Миру;49
територіальна громада;міська;Лиманська;1413300000;Комунальне некомерційне підприємство «Центр первинної медико-санітарної допомоги Лиманської міської ради»;ФП с. Коровій Яр;ФП;село;Коровій Яр;вулиця;Новоселів;4
територіальна громада;міська;Лиманська;1413300000;Комунальне некомерційне підприємство «Центр первинної медико-санітарної допомоги Лиманської міської ради»;ФП с. Лозове;ФП;село;Лозове;вулиця;Жилмасив;6/3
територіальна громада;міська;Лиманська;1413300000;Комунальне некомерційне підприємство «Центр первинної медико-санітарної допомоги Лиманської міської ради»;с. Шандриголове;ПЗ;село;Шандриголове;вулиця;Гутченко;9
територіальна громада;міська;Лиманська;1413300000;Комунальне некомерційне підприємство «Центр первинної медико-санітарної допомоги Лиманської міської ради»;АЗПСМ с-ще Нове;АМ;селище;Нове;вулиця;Маяковського;1
територіальна громада;міська;Лиманська;1413300000;Комунальне некомерційне підприємство «Центр первинної медико-санітарної допомоги Лиманської міської ради»;ФП с. Карпівка;ФП;село;Карпівка;вулиця;Восточна;19
територіальна громада;міська;Лиманська;1413300000;Комунальне некомерційне підприємство «Центр первинної медико-санітарної допомоги Лиманської міської ради»;ФП с. Рідкодуб;ФП;село;Рідкодуб;вулиця;Центральна;108
територіальна громада;міська;Лиманська;1413300000;Комунальне некомерційне підприємство «Центр первинної медико-санітарної допомоги Лиманської міської ради»;ФП с. Зелена Долина;ФП;село;Зелена Долина;вулиця;Центральна;49
територіальна громада;міська;Соледарська;1410370300;Комунальне некомерційне підприємство «Центр первинної медико-санітарної допомоги Соледарської міської ради»;Соледарська АЗПСМ;АГ;місто;Соледар;вулиця;Соледарська;1А
територіальна громада;міська;Соледарська;1410370300;Комунальне некомерційне підприємство «Центр первинної медико-санітарної допомоги Соледарської міської ради»;Никифорівська АЗПСМ;АМ;село;Никифорівка;вулиця;Тімірязева;43б
територіальна громада;міська;Соледарська;1410370300;Комунальне некомерційне підприємство «Центр первинної медико-санітарної допомоги Соледарської міської ради»;Яковлівська АЗПСМ;АМ;село;Яковлівка;вулиця;Донецька;9
територіальна громада;міська;Соледарська;1410370300;Комунальне некомерційне підприємство «Центр первинної медико-санітарної допомоги Соледарської міської ради»;Парасковіївська АЗПСМ;АМ;село;Парасковіївка;вулиця;Першотравнева;3
територіальна громада;міська;Соледарська;1410370300;Комунальне некомерційне підприємство «Центр первинної медико-санітарної допомоги Соледарської міської ради»;Підгородненський ФП;ФП;селище;Підгородне;вулиця;Садова;8а
територіальна громада;міська;Соледарська;1410370300;Комунальне некомерційне підприємство «Центр первинної медико-санітарної допомоги Соледарської міської ради»;Бахмутський ФП;ПЗ;село;Бахмутське;вулиця;Дружби;29
територіальна громада;міська;Соледарська;1410370300;Комунальне некомерційне підприємство «Центр первинної медико-санітарної допомоги Соледарської міської ради»;Володимирівський ФП;ПЗ;село;Володимирівка;вулиця;Гагаріна;40
територіальна громада;міська;Соледарська;1410370300;Комунальне некомерційне підприємство «Центр первинної медико-санітарної допомоги Соледарської міської ради»;Трипільський ФП;ФП;село;Трипілля;вулиця;Миру;17
територіальна громада;міська;Соледарська;1410370300;Комунальне некомерційне підприємство «Центр первинної медико-санітарної допомоги Соледарської міської ради»;Васюківський ФП;ФП;село;Васюківка;вулиця;Миру;6
територіальна громада;міська;Соледарська;1410370300;Комунальне некомерційне підприємство «Центр первинної медико-санітарної допомоги Соледарської міської ради»;Федорівський ФП;ФП;село;Федорівка;вулиця;Зарічна;54
територіальна громада;міська;Соледарська;1410370300;Комунальне некомерційне підприємство «Центр первинної медико-санітарної допомоги Соледарської міської ради»;Роздолівський ФП;ПЗ;село;Роздолівка;вулиця;Миру;27
територіальна громада;міська;Соледарська;1410370300;Комунальне некомерційне підприємство «Центр первинної медико-санітарної допомоги Соледарської міської ради»;Никифорівська АЗПСМ;АМ;село;Никифорівка;вулиця;Тімірязєва;1
територіальна громада;міська;Соледарська;1410370300;Комунальне некомерційне підприємство «Центр первинної медико-санітарної допомоги Соледарської міської ради»;Міньківська АЗПСМ;АМ;село;Міньківка;вулиця;Центральна;2
територіальна громада;міська;Соледарська;1410370300;Комунальне некомерційне підприємство «Центр первинної медико-санітарної допомоги Соледарської міської ради»;Оріхово-Василівський ФП;ФП;село;Оріхово-Василівка;вулиця;Чкалова;80
територіальна громада;міська;Соледарська;1410370300;Комунальне некомерційне підприємство «Центр первинної медико-санітарної допомоги Соледарської міської ради»;Василівський ФП;ФП;село;Василівка;вулиця;Нижня;18
територіальна громада;міська;Соледарська;1410370300;Комунальне некомерційне підприємство «Центр первинної медико-санітарної допомоги Соледарської міської ради»;Берестівський ФП;ПЗ;село;Берестове;вулиця;Садова;8
район;NA;Бахмутський;1420900000;Комунальне некомерційне підприємство «Центр первинної медико-санітарної допомоги Бахмутської районної ради»;Часів’ярська АЗПСМ;АГ;місто;Часів Яр;вулиця;Пірогова;3
район;NA;Бахмутський;1420900000;Комунальне некомерційне підприємство «Центр первинної медико-санітарної допомоги Бахмутської районної ради»;Іванівська АЗПСМ;АМ;село;Іванівське;вулиця;Освітня;2
район;NA;Бахмутський;1420900000;Комунальне некомерційне підприємство «Центр первинної медико-санітарної допомоги Бахмутської районної ради»;Опитненська АЗПСМ;Ц;селище;Опитне;вулиця;Київська;1а
район;NA;Бахмутський;1420900000;Комунальне некомерційне підприємство «Центр первинної медико-санітарної допомоги Бахмутської районної ради»;Опитненська АЗПСМ;АГ;селище;Опитне;вулиця;Шкільна;5а
район;NA;Бахмутський;1420900000;Комунальне некомерційне підприємство «Центр первинної медико-санітарної допомоги Бахмутської районної ради»;Покровська АЗПСМ;АМ;село;Покровське;вулиця;Центральна;74
район;NA;Бахмутський;1420900000;Комунальне некомерційне підприємство «Центр первинної медико-санітарної допомоги Бахмутської районної ради»;Григорівський ФП;ФП;село;Григорівка;вулиця;Сільська;72а
район;NA;Бахмутський;1420900000;Комунальне некомерційне підприємство «Центр первинної медико-санітарної допомоги Бахмутської районної ради»;Богданівський ФП;ФП;село;Богданівка;вулиця;Дачна;85а
район;NA;Бахмутський;1420900000;Комунальне некомерційне підприємство «Центр первинної медико-санітарної допомоги Бахмутської районної ради»;Калинівський ФАП;ФП;селище;Калинівка;вулиця;Лісова;30
район;NA;Бахмутський;1420900000;Комунальне некомерційне підприємство «Центр первинної медико-санітарної допомоги Бахмутської районної ради»;Ягідний ФП;ФП;селище;Ягідне;вулиця;Зелена;2а
район;NA;Бахмутський;1420900000;Комунальне некомерційне підприємство «Центр первинної медико-санітарної допомоги Бахмутської районної ради»;Берхівський ФП;ФП;село;Берхівка;вулиця;Підгородня;6а
район;NA;Бахмутський;1420900000;Комунальне некомерційне підприємство «Центр первинної медико-санітарної допомоги Бахмутської районної ради»;Зеленопільський ФП;ФП;селище;Зеленопілля;вулиця;Ювілейна;23
район;NA;Бахмутський;1420900000;Комунальне некомерційне підприємство «Центр первинної медико-санітарної допомоги Бахмутської районної ради»;Кліщіївський ФП;ПЗ;село;Кліщіївка;вулиця;Шкільна;103а
район;NA;Бахмутський;1420900000;Комунальне некомерційне підприємство «Центр первинної медико-санітарної допомоги Бахмутської районної ради»;Зайцівська АЗПСМ;АМ;село;Зайцеве;вулиця;Кооперативна;15а
район;NA;Бахмутський;1420900000;Комунальне некомерційне підприємство «Центр первинної медико-санітарної допомоги Бахмутської районної ради»;Покровський ФП;ФП;село;Покровське;вулиця;Механізаторів;21
район;NA;Бахмутський;1420900000;Комунальне некомерційне підприємство «Центр первинної медико-санітарної допомоги Бахмутської районної ради»;Хромовський ФП;ФП;селище;Хромове;вулиця;Трудові резерви;15/3
район;NA;Бахмутський;1420900000;Комунальне некомерційне підприємство «Центр первинної медико-санітарної допомоги Бахмутської районної ради»;Світлодарська АЗПСМ;АГ;місто;Світлодарськ;вулиця;Перемоги;1
район;NA;Бахмутський;1420900000;Комунальне некомерційне підприємство «Центр первинної медико-санітарної допомоги Бахмутської районної ради»;Новолуганська АЗПСМ;АМ;селище;Новолуганське;вулиця;Шкільна;25
район;NA;Бахмутський;1420900000;Комунальне некомерційне підприємство «Центр первинної медико-санітарної допомоги Бахмутської районної ради»;Луганська АЗПСМ;АМ;селище міського типу;Луганське;вулиця;Миру;2
район;NA;Бахмутський;1420900000;Комунальне некомерційне підприємство «Центр первинної медико-санітарної допомоги Бахмутської районної ради»;Миронівська АЗПСМ;АМ;село;Миронівка;вулиця;Б. Хмельницького;1
район;NA;Бахмутський;1420900000;Комунальне некомерційне підприємство «Центр первинної медико-санітарної допомоги Бахмутської районної ради»;Семигірський ФП;ФП;село;Семигір’я;вулиця;Безпалова;77
район;NA;Бахмутський;1420900000;Комунальне некомерційне підприємство «Центр первинної медико-санітарної допомоги Бахмутської районної ради»;Травневий ФП;ФП;селище;Травневе;вулиця;Центральна;2
район;NA;Бахмутський;1420900000;Комунальне некомерційне підприємство «Центр первинної медико-санітарної допомоги Бахмутської районної ради»;Майорський ФП;ПЗ;селище міського типу;Зайцеве;вулиця;Майорська;15а
район;NA;Бахмутський;1420900000;Комунальне некомерційне підприємство «Центр первинної медико-санітарної допомоги Бахмутської районної ради»;Сіверська АЗПСМ;АГ;місто;Сіверськ;вулиця;Північна;2
район;NA;Бахмутський;1420900000;Комунальне некомерційне підприємство «Центр первинної медико-санітарної допомоги Бахмутської районної ради»;Званівська АЗПСМ;АМ;село;Званівка;вулиця;Зелена;3
район;NA;Бахмутський;1420900000;Комунальне некомерційне підприємство «Центр первинної медико-санітарної допомоги Бахмутської районної ради»;Дронівський ФП;ФП;село;Дронівка;вулиця;Бібліотечна;8
район;NA;Бахмутський;1420900000;Комунальне некомерційне підприємство «Центр первинної медико-санітарної допомоги Бахмутської районної ради»;Серебрянський ФП;ПЗ;село;Серебрянка;вулиця;Вишнева;65
район;NA;Бахмутський;1420900000;Комунальне некомерційне підприємство «Центр первинної медико-санітарної допомоги Бахмутської районної ради»;Верхньокам’янський ФП;ПЗ;село;Верхньокам’янське;вулиця;Землянова;120а
район;NA;Бахмутський;1420900000;Комунальне некомерційне підприємство «Центр первинної медико-санітарної допомоги Бахмутської районної ради»;Різниківський ФП №1;ФП;село;Різниківка;вулиця;Центральна;46
район;NA;Бахмутський;1420900000;Комунальне некомерційне підприємство «Центр первинної медико-санітарної допомоги Бахмутської районної ради»;Різниківський ФП №2;ФП;село;Різниківка;вулиця;Центральна;173
район;NA;Бахмутський;1420900000;Комунальне некомерційне підприємство «Центр первинної медико-санітарної допомоги Бахмутської районної ради»;Свято-Покровський ФП;ФП;село;Свято-Покровське;вулиця;Поштова;3
район;NA;Бахмутський;1420900000;Комунальне некомерційне підприємство «Центр первинної медико-санітарної допомоги Бахмутської районної ради»;Переїзнянський ФП;ПЗ;село;Переїзне;вулиця;Центральна;192
район;NA;Бахмутський;1420900000;Комунальне некомерційне підприємство «Центр первинної медико-санітарної допомоги Бахмутської районної ради»;Клинівський ФП;ПЗ;село;Клинове;вулиця;Козаченко;47
район;NA;Бахмутський;1420900000;Комунальне некомерційне підприємство «Центр первинної медико-санітарної допомоги Бахмутської районної ради»;Відродженський ФП;ПЗ;село;Відродження;вулиця;Клубна;29
район;NA;Бахмутський;1420900000;Комунальне некомерційне підприємство «Центр первинної медико-санітарної допомоги Бахмутської районної ради»;Кодемський ФП;ФП;село;Кодема;вулиця;Центральна;26
район;NA;Великоновосілківський;1421200000;Комунальне підприємство «Великоновосілківської районної ради «Великоновосілківський районний центр первинної медико-санітарної допомоги»;Центральна АЗПСМ смт Велика Новосілка;АГ;селище міського типу;Велика Новосілка;провулок;Южний;3
район;NA;Великоновосілківський;1421200000;Комунальне підприємство «Великоновосілківської районної ради «Великоновосілківський районний центр первинної медико-санітарної допомоги»;Андріївська АЗПСМ;АМ;село;Андріївка;вулиця;Миру;50б
район;NA;Великоновосілківський;1421200000;Комунальне підприємство «Великоновосілківської районної ради «Великоновосілківський районний центр первинної медико-санітарної допомоги»;ФП с. Скудне;ФП;село;Скудне;вулиця;Калініна;38
район;NA;Великоновосілківський;1421200000;Комунальне підприємство «Великоновосілківської районної ради «Великоновосілківський районний центр первинної медико-санітарної допомоги»;ФАП с. Нескучне;ПЗ;село;Нескучне;вулиця;Плисенка;25
район;NA;Великоновосілківський;1421200000;Комунальне підприємство «Великоновосілківської районної ради «Великоновосілківський районний центр первинної медико-санітарної допомоги»;ФП с-ще Благодатне;ПЗ;селище;Благодатне;вулиця;Нова;5
район;NA;Великоновосілківський;1421200000;Комунальне підприємство «Великоновосілківської районної ради «Великоновосілківський районний центр первинної медико-санітарної допомоги»;ФАП с-ще Роздольне;ПЗ;селище;Роздольне;вулиця;Шкільна;19
район;NA;Великоновосілківський;1421200000;Комунальне підприємство «Великоновосілківської районної ради «Великоновосілківський районний центр первинної медико-санітарної допомоги»;ФАП с. Старомайорське;ФАП;село;Старомайорське;вулиця;Кооперативна;11
район;NA;Великоновосілківський;1421200000;Комунальне підприємство «Великоновосілківської районної ради «Великоновосілківський районний центр первинної медико-санітарної допомоги»;ФАП с-ще Урожайне;ПЗ;селище;Урожайне;вулиця;Привітна;4
район;NA;Великоновосілківський;1421200000;Комунальне підприємство «Великоновосілківської районної ради «Великоновосілківський районний центр первинної медико-санітарної допомоги»;ФАП с. Макарівка;ФАП;село;Макарівка;вулиця;Миру;1
район;NA;Великоновосілківський;1421200000;Комунальне підприємство «Великоновосілківської районної ради «Великоновосілківський районний центр первинної медико-санітарної допомоги»;ФП с-ще Бурлацьке;ФП;селище;Бурлацьке;вулиця;Центральна;28
район;NA;Великоновосілківський;1421200000;Комунальне підприємство «Великоновосілківської районної ради «Великоновосілківський районний центр первинної медико-санітарної допомоги»;АЗПСМ с. Комар;АМ;село;Комар;вулиця;Фролова;1
район;NA;Великоновосілківський;1421200000;Комунальне підприємство «Великоновосілківської районної ради «Великоновосілківський районний центр первинної медико-санітарної допомоги»;АЗПСМ с-ще Зелений Гай;АМ;селище;Зелений Гай;вулиця;Петровського;1а
район;NA;Великоновосілківський;1421200000;Комунальне підприємство «Великоновосілківської районної ради «Великоновосілківський районний центр первинної медико-санітарної допомоги»;ФП с. Воскресенка;ПЗ;село;Воскресенка;вулиця;Гагаріна;38
район;NA;Великоновосілківський;1421200000;Комунальне підприємство «Великоновосілківської районної ради «Великоновосілківський районний центр первинної медико-санітарної допомоги»;ФП с. Іскра;ПЗ;село;Іскра;вулиця;Центральна;29
район;NA;Великоновосілківський;1421200000;Комунальне підприємство «Великоновосілківської районної ради «Великоновосілківський районний центр первинної медико-санітарної допомоги»;ФП с. Піддубне;ПЗ;село;Піддубне;вулиця;Київський;26
район;NA;Великоновосілківський;1421200000;Комунальне підприємство «Великоновосілківської районної ради «Великоновосілківський районний центр первинної медико-санітарної допомоги»;ФП с. Мирне;ПЗ;село;Мирне;вулиця;Тітова;1
район;NA;Великоновосілківський;1421200000;Комунальне підприємство «Великоновосілківської районної ради «Великоновосілківський районний центр первинної медико-санітарної допомоги»;ФП с. Веселе;ФП;село;Веселе;вулиця;Гагаріна;45
район;NA;Великоновосілківський;1421200000;Комунальне підприємство «Великоновосілківської районної ради «Великоновосілківський районний центр первинної медико-санітарної допомоги»;ФП с. Ялта;ПЗ;село;Ялта;вулиця;Зелена;4
район;NA;Великоновосілківський;1421200000;Комунальне підприємство «Великоновосілківської районної ради «Великоновосілківський районний центр первинної медико-санітарної допомоги»;АЗПСМ с. Андріївка;АМ;село;Андріївка;вулиця;Матросова;11
район;NA;Великоновосілківський;1421200000;Комунальне підприємство «Великоновосілківської районної ради «Великоновосілківський районний центр первинної медико-санітарної допомоги»;ФАП с. Шевченко;ПЗ;село;Шевченко;вулиця;Макарова;41
район;NA;Великоновосілківський;1421200000;Комунальне підприємство «Великоновосілківської районної ради «Великоновосілківський районний центр первинної медико-санітарної допомоги»;ФАП с. Олексіївка;ПЗ;село;Олексіївка;вулиця;Миру;3
район;NA;Великоновосілківський;1421200000;Комунальне підприємство «Великоновосілківської районної ради «Великоновосілківський районний центр первинної медико-санітарної допомоги»;АЗПСМ с. Багатир;АМ;село;Багатир;вулиця;Больнична;40
район;NA;Великоновосілківський;1421200000;Комунальне підприємство «Великоновосілківської районної ради «Великоновосілківський районний центр первинної медико-санітарної допомоги»;ФАП с. Костянтинопіль;ПЗ;село;Костянтинопіль;вулиця;Мічуріна;26
район;NA;Великоновосілківський;1421200000;Комунальне підприємство «Великоновосілківської районної ради «Великоновосілківський районний центр первинної медико-санітарної допомоги»;ФАП с. Улакли;ПЗ;село;Улакли;вулиця;Молодіжна;61
район;NA;Великоновосілківський;1421200000;Комунальне підприємство «Великоновосілківської районної ради «Великоновосілківський районний центр первинної медико-санітарної допомоги»;ФАП с-ще Розлив;ФАП;селище;Розлив;вулиця;Центральна;8
район;NA;Великоновосілківський;1421200000;Комунальне підприємство «Великоновосілківської районної ради «Великоновосілківський районний центр первинної медико-санітарної допомоги»;ФП с-ще Одрадне;ФП;селище;Одрадне;вулиця;Широка;5
район;NA;Великоновосілківський;1421200000;Комунальне підприємство «Великоновосілківської районної ради «Великоновосілківський районний центр первинної медико-санітарної допомоги»;АЗПСМ с. Старомлинівка;АМ;село;Старомлинівка;вулиця;Центральна;70
район;NA;Великоновосілківський;1421200000;Комунальне підприємство «Великоновосілківської районної ради «Великоновосілківський районний центр первинної медико-санітарної допомоги»;ФАП с-ще Керменчик;ПЗ;селище;Керменчик;вулиця;Паркова;8
район;NA;Великоновосілківський;1421200000;Комунальне підприємство «Великоновосілківської районної ради «Великоновосілківський районний центр первинної медико-санітарної допомоги»;ФАП с. Георгіївка;ФАП;село;Георгіївка;вулиця;Новоселів;10
район;NA;Великоновосілківський;1421200000;Комунальне підприємство «Великоновосілківської районної ради «Великоновосілківський районний центр первинної медико-санітарної допомоги»;ФАП с. Орлинське;ФАП;село;Орлинське;вулиця;Космонавтів;35
район;NA;Великоновосілківський;1421200000;Комунальне підприємство «Великоновосілківської районної ради «Великоновосілківський районний центр первинної медико-санітарної допомоги»;АЗПСМ с. Новопетриківка;АМ;село;Новопетриківка;вулиця;Центральна;10
район;NA;Великоновосілківський;1421200000;Комунальне підприємство «Великоновосілківської районної ради «Великоновосілківський районний центр первинної медико-санітарної допомоги»;АЗПСМ с. Красна Поляна;АМ;село;Красна Поляна;вулиця;Больнична;32
район;NA;Великоновосілківський;1421200000;Комунальне підприємство «Великоновосілківської районної ради «Великоновосілківський районний центр первинної медико-санітарної допомоги»;ФАП с. Малий Керменчик;ФАП;село;Ялинське;вулиця;Блакитна;7
район;NA;Великоновосілківський;1421200000;Комунальне підприємство «Великоновосілківської районної ради «Великоновосілківський районний центр первинної медико-санітарної допомоги»;АЗПСМ с. Шахтарське;АМ;село;Шахтарське;вулиця;Центральна;26
район;NA;Великоновосілківський;1421200000;Комунальне підприємство «Великоновосілківської районної ради «Великоновосілківський районний центр первинної медико-санітарної допомоги»;ФП с-ще Золота Нива;ФАП;селище;Золота Нива;вулиця;Маяковського;31
район;NA;Великоновосілківський;1421200000;Комунальне підприємство «Великоновосілківської районної ради «Великоновосілківський районний центр первинної медико-санітарної допомоги»;ФП с-ще Ясна Поляна;ФАП;селище;Ясна Поляна;вулиця;Гагаріна;34
район;NA;Великоновосілківський;1421200000;Комунальне підприємство «Великоновосілківської районної ради «Великоновосілківський районний центр первинної медико-санітарної допомоги»;ФП с-ще Новодонецьке;ФАП;селище;Новодонецьке;вулиця;Ясельний;6
район;NA;Великоновосілківський;1421200000;Комунальне підприємство «Великоновосілківської районної ради «Великоновосілківський районний центр первинної медико-санітарної допомоги»;ФП с. Євгенівка;ФАП;село;Євгенівка;вулиця;Центральна;28
район;NA;Великоновосілківський;1421200000;Комунальне підприємство «Великоновосілківської районної ради «Великоновосілківський районний центр первинної медико-санітарної допомоги»;ФП с. Новомайорське;ФАП;село;Новомайорське;вулиця;Центральна;40
район;NA;Великоновосілківський;1421200000;Комунальне підприємство «Великоновосілківської районної ради «Великоновосілківський районний центр первинної медико-санітарної допомоги»;ФП с. Зелене Поле;ФАП;село;Зелене Поле;вулиця;Центральна;6
район;NA;Великоновосілківський;1421200000;Комунальне підприємство «Великоновосілківської районної ради «Великоновосілківський районний центр первинної медико-санітарної допомоги»;ФАП с. Привільне;ФАП;село;Вільне Поле;вулиця;Садова;28
район;NA;Великоновосілківський;1421200000;Комунальне підприємство «Великоновосілківської районної ради «Великоновосілківський районний центр первинної медико-санітарної допомоги»;ФАП с-ще Шевченко;ФАП;селище;Шевченко;вулиця;Шевченка;4
район;NA;Волноваський;1421500000;Комунальне некомерційне підприємство «Волноваський районний центр первинної медико-санітарної допомоги Волноваської районної ради»;Центральна АЗПСМ м. Волноваха;Ц;місто;Волноваха;вулиця;Фіалковського;2а
район;NA;Волноваський;1421500000;Комунальне некомерційне підприємство «Волноваський районний центр первинної медико-санітарної допомоги Волноваської районної ради»;АЗПСМ;АМ;село;Микільське;вулиця;Центральна;58
район;NA;Волноваський;1421500000;Комунальне некомерційне підприємство «Волноваський районний центр первинної медико-санітарної допомоги Волноваської районної ради»;АЗПСМ;АМ;село;Свободне;вулиця;Садова;98
район;NA;Волноваський;1421500000;Комунальне некомерційне підприємство «Волноваський районний центр первинної медико-санітарної допомоги Волноваської районної ради»;АЗПСМ;АМ;село;Старогнатівка;вулиця;Шкільна;53а
район;NA;Волноваський;1421500000;Комунальне некомерційне підприємство «Волноваський районний центр первинної медико-санітарної допомоги Волноваської районної ради»;АЗПСМ;АМ;село;Петрівське;вулиця;Центральна;43б
район;NA;Волноваський;1421500000;Комунальне некомерційне підприємство «Волноваський районний центр первинної медико-санітарної допомоги Волноваської районної ради»;АЗПСМ м. Волноваха;АГ;місто;Волноваха;вулиця;Донецька;250
район;NA;Волноваський;1421500000;Комунальне некомерційне підприємство «Волноваський районний центр первинної медико-санітарної допомоги Волноваської районної ради»;АЗПСМ с. Валер’янівка;АМ;село;Валер’янівка;вулиця;Центральна;35
район;NA;Волноваський;1421500000;Комунальне некомерційне підприємство «Волноваський районний центр первинної медико-санітарної допомоги Волноваської районної ради»;АЗПСМ с. Рибинське;АМ;село;Рибинське;вулиця;Старикова;40
район;NA;Волноваський;1421500000;Комунальне некомерційне підприємство «Волноваський районний центр первинної медико-санітарної допомоги Волноваської районної ради»;ФП с. Новоапостолівка;ФП;село;Новоапостолівка;вулиця;Губенко;1
район;NA;Волноваський;1421500000;Комунальне некомерційне підприємство «Волноваський районний центр первинної медико-санітарної допомоги Волноваської районної ради»;АЗПСМ с. Свободне;АМ;село;Свободне;вулиця;Садова;77
район;NA;Волноваський;1421500000;Комунальне некомерційне підприємство «Волноваський районний центр первинної медико-санітарної допомоги Волноваської районної ради»;АЗПСМ смт Донське;АМ;селище міського типу;Донське;вулиця;Спортивна;1
район;NA;Волноваський;1421500000;Комунальне некомерційне підприємство «Волноваський районний центр первинної медико-санітарної допомоги Волноваської районної ради»;АЗПСМ с. Бугас;АМ;село;Бугас;вулиця;Василя Хара;34
район;NA;Волноваський;1421500000;Комунальне некомерційне підприємство «Волноваський районний центр первинної медико-санітарної допомоги Волноваської районної ради»;ФАП с. Дмитрівка;ПЗ;село;Дмитрівка;вулиця;Шкільна;40
район;NA;Волноваський;1421500000;Комунальне некомерційне підприємство «Волноваський районний центр первинної медико-санітарної допомоги Волноваської районної ради»;ФАП с. Стрітенка;ПЗ;село;Стрітенка;вулиця;Миру;13
район;NA;Волноваський;1421500000;Комунальне некомерційне підприємство «Волноваський районний центр первинної медико-санітарної допомоги Волноваської районної ради»;ФП с. Трудове;ФП;село;Трудове;вулиця;Волгоградська;27
район;NA;Волноваський;1421500000;Комунальне некомерційне підприємство «Волноваський районний центр первинної медико-санітарної допомоги Волноваської районної ради»;ФП с. Голубицьке;ПЗ;село;Голубицьке;вулиця;Миру;47
район;NA;Волноваський;1421500000;Комунальне некомерційне підприємство «Волноваський районний центр первинної медико-санітарної допомоги Волноваської районної ради»;ФП с. Малинівка;ФП;село;Малинівка;вулиця;1 Травня;33б
район;NA;Волноваський;1421500000;Комунальне некомерційне підприємство «Волноваський районний центр первинної медико-санітарної допомоги Волноваської районної ради»;ФАП смт Графське;ПЗ;селище міського типу;Графське;вулиця;Студентська;5
район;NA;Волноваський;1421500000;Комунальне некомерційне підприємство «Волноваський районний центр первинної медико-санітарної допомоги Волноваської районної ради»;ФАП с. Ближнє;ПЗ;село;Ближнє;вулиця;Олімпійська;2
район;NA;Волноваський;1421500000;Комунальне некомерційне підприємство «Волноваський районний центр первинної медико-санітарної допомоги Волноваської районної ради»;АЗПСМ с. Микільське;АМ;село;Микільське;вулиця;Центральна;83/16
район;NA;Волноваський;1421500000;Комунальне некомерційне підприємство «Волноваський районний центр первинної медико-санітарної допомоги Волноваської районної ради»;АЗПСМ смт Володимирівка;АМ;селище міського типу;Володимирівка;вулиця;Проценко;10
район;NA;Волноваський;1421500000;Комунальне некомерційне підприємство «Волноваський районний центр первинної медико-санітарної допомоги Волноваської районної ради»;ФАП смт Володимирівка;ПЗ;селище міського типу;Володимирівка;вулиця;Федора Солов’я;69
район;NA;Волноваський;1421500000;Комунальне некомерційне підприємство «Волноваський районний центр первинної медико-санітарної допомоги Волноваської районної ради»;ФАП смт Благодатне;ПЗ;селище міського типу;Благодатне;вулиця;Ювілейна;35
район;NA;Волноваський;1421500000;Комунальне некомерційне підприємство «Волноваський районний центр первинної медико-санітарної допомоги Волноваської районної ради»;АЗПСМ смт Новотроїцьке;АМ;селище міського типу;Новотроїцьке;вулиця;Молодіжна;11
район;NA;Волноваський;1421500000;Комунальне некомерційне підприємство «Волноваський районний центр первинної медико-санітарної допомоги Волноваської районної ради»;АЗПСМ смт Ольгинка;АМ;селище міського типу;Ольгинка;вулиця;Шкільна;41
район;NA;Волноваський;1421500000;Комунальне некомерційне підприємство «Волноваський районний центр первинної медико-санітарної допомоги Волноваської районної ради»;АЗПСМ с. Рівнопіль;АМ;село;Рівнопіль;вулиця;Леміхова;1
район;NA;Волноваський;1421500000;Комунальне некомерційне підприємство «Волноваський районний центр первинної медико-санітарної допомоги Волноваської районної ради»;ФАП с. Зачатівка;ПЗ;село;Зачатівка;вулиця;Молодіжна;13
район;NA;Волноваський;1421500000;Комунальне некомерційне підприємство «Волноваський районний центр первинної медико-санітарної допомоги Волноваської районної ради»;ФАП с-ще Зачатівка;ФАП;селище;Зачатівка;вулиця;Шкільна;24
район;NA;Волноваський;1421500000;Комунальне некомерційне підприємство «Волноваський районний центр первинної медико-санітарної допомоги Волноваської районної ради»;ФАП с. Вільне;ПЗ;село;Вільне;вулиця;Центральна;86
район;NA;Волноваський;1421500000;Комунальне некомерційне підприємство «Волноваський районний центр первинної медико-санітарної допомоги Волноваської районної ради»;АЗПСМ с. Хлібодарівка;АМ;село;Хлібодарівка;вулиця;Заводська;13
район;NA;Волноваський;1421500000;Комунальне некомерційне підприємство «Волноваський районний центр первинної медико-санітарної допомоги Волноваської районної ради»;АЗПСМ с. Златоустівка;АМ;село;Златоустівка;вулиця;Тополина;45
район;NA;Волноваський;1421500000;Комунальне некомерційне підприємство «Волноваський районний центр первинної медико-санітарної допомоги Волноваської районної ради»;ФАП с. Діанівка;ПЗ;село;Діанівка;вулиця;Садова;10
район;NA;Волноваський;1421500000;Комунальне некомерційне підприємство «Волноваський районний центр первинної медико-санітарної допомоги Волноваської районної ради»;ФП с. Затишне;ФП;село;Затишне;вулиця;Леніна;49
район;NA;Волноваський;1421500000;Комунальне некомерційне підприємство «Волноваський районний центр первинної медико-санітарної допомоги Волноваської районної ради»;АЗПСМ смт Мирне;АМ;селище міського типу;Мирне;вулиця;Больнична;1
район;NA;Волноваський;1421500000;Комунальне некомерційне підприємство «Волноваський районний центр первинної медико-санітарної допомоги Волноваської районної ради»;АЗПСМ с. Гранітне;АМ;село;Гранітне;вулиця;Богдана Хмельницького;22
район;NA;Волноваський;1421500000;Комунальне некомерційне підприємство «Волноваський районний центр первинної медико-санітарної допомоги Волноваської районної ради»;ФП с-ще Бахчовик;ФП;селище;Бахчовик;вулиця;Центральна;5
район;NA;Волноваський;1421500000;Комунальне некомерційне підприємство «Волноваський районний центр первинної медико-санітарної допомоги Волноваської районної ради»;ФАП с. Степанівка;ФАП;село;Степанівка;вулиця;Яблунева;16
район;NA;Волноваський;1421500000;Комунальне некомерційне підприємство «Волноваський районний центр первинної медико-санітарної допомоги Волноваської районної ради»;ФП с. Кам’янка;ПЗ;село;Кам’янка;вулиця;Центральна;15
район;NA;Волноваський;1421500000;Комунальне некомерційне підприємство «Волноваський районний центр первинної медико-санітарної допомоги Волноваської районної ради»;ФП с. Новоселівка Друга;ФП;село;Новоселівка Друга;вулиця;Центральна;12
район;NA;Волноваський;1421500000;Комунальне некомерційне підприємство «Волноваський районний центр первинної медико-санітарної допомоги Волноваської районної ради»;ФАП с. Новоселівка;ПЗ;село;Новоселівка;вулиця;Центральна;7
район;NA;Волноваський;1421500000;Комунальне некомерційне підприємство «Волноваський районний центр первинної медико-санітарної допомоги Волноваської районної ради»;АЗПСМ с. Широкине;АМ;село;Широкине;вулиця;Совєтська;43
район;NA;Волноваський;1421500000;Комунальне некомерційне підприємство «Волноваський районний центр первинної медико-санітарної допомоги Волноваської районної ради»;ФАП с-ще Калинівка;ФАП;селище;Калинівка;вулиця;Підгорна;157
район;NA;Волноваський;1421500000;Комунальне некомерційне підприємство «Волноваський районний центр первинної медико-санітарної допомоги Волноваської районної ради»;ФП с. Лебединське;ПЗ;село;Лебединське;вулиця;Центральна;24а
район;NA;Волноваський;1421500000;Комунальне некомерційне підприємство «Волноваський районний центр первинної медико-санітарної допомоги Волноваської районної ради»;ФП с. Сопине;ФП;село;Сопине;вулиця;Центральна;55
район;NA;Волноваський;1421500000;Комунальне некомерційне підприємство «Волноваський районний центр первинної медико-санітарної допомоги Волноваської районної ради»;ФП с. Бердянське;ФП;село;Бердянське;вулиця;Морська;NA
район;NA;Волноваський;1421500000;Комунальне некомерційне підприємство «Волноваський районний центр первинної медико-санітарної допомоги Волноваської районної ради»;ФАП с. Павлопіль;ФАП;село;Павлопіль;вулиця;Сивухіна;2а
район;NA;Волноваський;1421500000;Комунальне некомерційне підприємство «Волноваський районний центр первинної медико-санітарної допомоги Волноваської районної ради»;АЗПСМ с. Петрівське;АМ;село;Петрівське;вулиця;Центральна;43а
район;NA;Волноваський;1421500000;Комунальне некомерційне підприємство «Волноваський районний центр первинної медико-санітарної допомоги Волноваської районної ради»;ФП с. Степне;ПЗ;село;Степне;вулиця;Центральна;19
район;NA;Волноваський;1421500000;Комунальне некомерційне підприємство «Волноваський районний центр первинної медико-санітарної допомоги Волноваської районної ради»;ФП с. Кропивницьке;ФП;село;Кропивницьке;вулиця;Каштанова;6
район;NA;Волноваський;1421500000;Комунальне некомерційне підприємство «Волноваський районний центр первинної медико-санітарної допомоги Волноваської районної ради»;ФАП с. Єгорівка;ФАП;село;Єгорівка;вулиця;Ювілейна;44
район;NA;Волноваський;1421500000;Комунальне некомерційне підприємство «Волноваський районний центр первинної медико-санітарної допомоги Волноваської районної ради»;АЗПСМ с. Миколаївка;АМ;село;Миколаївка;вулиця;Центральна;59а
район;NA;Волноваський;1421500000;Комунальне некомерційне підприємство «Волноваський районний центр первинної медико-санітарної допомоги Волноваської районної ради»;ФП с. Новогнатівка;ФП;село;Новогнатівка;вулиця;Центральна;26а
район;NA;Волноваський;1421500000;Комунальне некомерційне підприємство «Волноваський районний центр первинної медико-санітарної допомоги Волноваської районної ради»;ФП с. Трудівське;ФП;село;Трудівське;вулиця;Центральна;32
район;NA;Волноваський;1421500000;Комунальне некомерційне підприємство «Волноваський районний центр первинної медико-санітарної допомоги Волноваської районної ради»;АЗПСМ с. Старогнатівка;АМ;село;Старогнатівка;вулиця;Шкільна;73
район;NA;Волноваський;1421500000;Комунальне некомерційне підприємство «Волноваський районний центр первинної медико-санітарної допомоги Волноваської районної ради»;ФП с. Прохорівка;ФП;село;Прохорівка;вулиця;Центральна;66
район;NA;Волноваський;1421500000;Комунальне некомерційне підприємство «Волноваський районний центр первинної медико-санітарної допомоги Волноваської районної ради»;АЗПСМ с. Анадоль;АМ;село;Анадоль;вулиця;Лікарняна;1
район;NA;Волноваський;1421500000;Комунальне некомерційне підприємство «Волноваський районний центр первинної медико-санітарної допомоги Волноваської районної ради»;ФАП с. Привільне;ПЗ;село;Привільне;вулиця;Центральна;2
район;NA;Волноваський;1421500000;Комунальне некомерційне підприємство «Волноваський районний центр первинної медико-санітарної допомоги Волноваської районної ради»;ФАП с. Сонячне;ПЗ;село;Сонячне;вулиця;Молодіжна;1
район;NA;Волноваський;1421500000;Комунальне некомерційне підприємство «Волноваський районний центр первинної медико-санітарної допомоги Волноваської районної ради»;ФП с. Полкове;ФП;село;Полкове;вулиця;Набережна;37
район;NA;Волноваський;1421500000;Комунальне некомерційне підприємство «Волноваський районний центр первинної медико-санітарної допомоги Волноваської районної ради»;ФП с. Калинове;ФП;село;Калинове;вулиця;Центральна;21
район;NA;Волноваський;1421500000;Комунальне некомерційне підприємство «Волноваський районний центр первинної медико-санітарної допомоги Волноваської районної ради»;АЗПСМ с. Чермалик;АМ;село;Чермалик;вулиця;Торгова;27
район;NA;Волноваський;1421500000;Комунальне некомерційне підприємство «Волноваський районний центр первинної медико-санітарної допомоги Волноваської районної ради»;ФП с. Орловське;ФП;село;Орловське;вулиця;Центральна;31
район;NA;Волноваський;1421500000;Комунальне некомерційне підприємство «Волноваський районний центр первинної медико-санітарної допомоги Волноваської районної ради»;АЗПСМ с. Іванівка;АМ;село;Іванівка;вулиця;Набережна;44
район;NA;Волноваський;1421500000;Комунальне некомерційне підприємство «Волноваський районний центр первинної медико-санітарної допомоги Волноваської районної ради»;ФП с. Кирилівка;ФП;село;Кирилівка;вулиця;Шкільна;61
район;NA;Волноваський;1421500000;Комунальне некомерційне підприємство «Волноваський районний центр первинної медико-санітарної допомоги Волноваської районної ради»;ФАП с. Новоандріївка;ФАП;село;Новоандріївка;вулиця;Центральна;41
район;NA;Добропільський;1422000000;Комунальне некомерційне підприємство «Районний центр первинної медико-санітарної допомоги Добропільської районної ради»;Добропільська АЗПСМ № 1;АМ;село;Добропілля;вулиця;Шкільна;1а
район;NA;Добропільський;1422000000;Комунальне некомерційне підприємство «Районний центр первинної медико-санітарної допомоги Добропільської районної ради»;АЗПСМ;АМ;село;Криворіжжя;вулиця;Центральна;103а
район;NA;Добропільський;1422000000;Комунальне некомерційне підприємство «Районний центр первинної медико-санітарної допомоги Добропільської районної ради»;Центральна АЗПСМ № 7;АМ;місто;Добропілля;вулиця;Банкова;12
район;NA;Добропільський;1422000000;Комунальне некомерційне підприємство «Районний центр первинної медико-санітарної допомоги Добропільської районної ради»;Світлівська АЗПСМ № 6;АМ;селище;Світле;вулиця;Перемоги;28
район;NA;Добропільський;1422000000;Комунальне некомерційне підприємство «Районний центр первинної медико-санітарної допомоги Добропільської районної ради»;Святогорівська АЗПСМ № 4;АМ;селище міського типу;Святогорівка;вулиця;Шкільна;114
район;NA;Добропільський;1422000000;Комунальне некомерційне підприємство «Районний центр первинної медико-санітарної допомоги Добропільської районної ради»;ФП с-ще Шевченко;ФП;селище;Шевченко;вулиця;Чарушнікова;6б
район;NA;Добропільський;1422000000;Комунальне некомерційне підприємство «Районний центр первинної медико-санітарної допомоги Добропільської районної ради»;ФП с. Мирне;ФП;село;Мирне;вулиця;Миру;36
район;NA;Добропільський;1422000000;Комунальне некомерційне підприємство «Районний центр первинної медико-санітарної допомоги Добропільської районної ради»;ФП с-ще Новий Донбас;ФП;селище;Новий Донбас;вулиця;Павлова;2а
район;NA;Добропільський;1422000000;Комунальне некомерційне підприємство «Районний центр первинної медико-санітарної допомоги Добропільської районної ради»;Ганнівський ФП;ПЗ;село;Ганнівка;вулиця;Ходневича;75а
район;NA;Добропільський;1422000000;Комунальне некомерційне підприємство «Районний центр первинної медико-санітарної допомоги Добропільської районної ради»;Вірівський ФП;ФП;село;Вірівка;вулиця;Ошерова;7
район;NA;Добропільський;1422000000;Комунальне некомерційне підприємство «Районний центр первинної медико-санітарної допомоги Добропільської районної ради»;Новоукраїнський ФП;ФП;село;Новоукраїнка;вулиця;Слави;3а
район;NA;Добропільський;1422000000;Комунальне некомерційне підприємство «Районний центр первинної медико-санітарної допомоги Добропільської районної ради»;Рубежанський ФП;ФП;село;Рубіжне;вулиця;Сонячна;15
район;NA;Добропільський;1422000000;Комунальне некомерційне підприємство «Районний центр первинної медико-санітарної допомоги Добропільської районної ради»;Нововодянський ФП;ПЗ;село;Нововодяне;вулиця;Донецька;70
район;NA;Добропільський;1422000000;Комунальне некомерційне підприємство «Районний центр первинної медико-санітарної допомоги Добропільської районної ради»;Криворізька АЗПСМ № 5;АМ;село;Криворіжжя;вулиця;Весела;88
район;NA;Добропільський;1422000000;Комунальне некомерційне підприємство «Районний центр первинної медико-санітарної допомоги Добропільської районної ради»;Новофедорівський ФП;ФП;село;Новофедорівка;вулиця;Центральна;68
район;NA;Добропільський;1422000000;Комунальне некомерційне підприємство «Районний центр первинної медико-санітарної допомоги Добропільської районної ради»;Шилівський ФП;ФП;село;Шилівка;вулиця;Шевченко;13
район;NA;Добропільський;1422000000;Комунальне некомерційне підприємство «Районний центр первинної медико-санітарної допомоги Добропільської районної ради»;ФП села Зелене;ФП;село;Зелене;вулиця;Зелена;36
район;NA;Добропільський;1422000000;Комунальне некомерційне підприємство «Районний центр первинної медико-санітарної допомоги Добропільської районної ради»;Завидо-Кудашівський ФП;ФП;село;Завидо-Кудашеве;вулиця;Донецька;3
район;NA;Добропільський;1422000000;Комунальне некомерційне підприємство «Районний центр первинної медико-санітарної допомоги Добропільської районної ради»;Шахівська АЗПСМ № 3;АМ;село;Шахове;вулиця;М. Чернявського;5
район;NA;Добропільський;1422000000;Комунальне некомерційне підприємство «Районний центр первинної медико-санітарної допомоги Добропільської районної ради»;ФП с. Нове Шахове;ФП;село;Нове Шахове;вулиця;Трудова;6
район;NA;Добропільський;1422000000;Комунальне некомерційне підприємство «Районний центр первинної медико-санітарної допомоги Добропільської районної ради»;Торецький ФП;ФП;село;Торецьке;вулиця;О. Довженка;77
район;NA;Добропільський;1422000000;Комунальне некомерційне підприємство «Районний центр первинної медико-санітарної допомоги Добропільської районної ради»;Новоторецький ФП;ФП;село;Новоторецьке;вулиця;Гагаріна;17а
район;NA;Добропільський;1422000000;Комунальне некомерційне підприємство «Районний центр первинної медико-санітарної допомоги Добропільської районної ради»;Маяцький ФП;ФП;селище;Маяк;вулиця;Свободи;7
район;NA;Добропільський;1422000000;Комунальне некомерційне підприємство «Районний центр первинної медико-санітарної допомоги Добропільської районної ради»;Никанорівський ФП;ФП;село;Никанорівка;вулиця;Ліни Костенко;19
район;NA;Добропільський;1422000000;Комунальне некомерційне підприємство «Районний центр первинної медико-санітарної допомоги Добропільської районної ради»;Золотоколодязька АЗПСМ № 2;АМ;село;Золотий Колодязь;вулиця;Патріотична;25б
район;NA;Добропільський;1422000000;Комунальне некомерційне підприємство «Районний центр первинної медико-санітарної допомоги Добропільської районної ради»;Новотроїцький ФП;ФП;село;Новотроїцьке;вулиця;Краматорська;2
район;NA;Добропільський;1422000000;Комунальне некомерційне підприємство «Районний центр первинної медико-санітарної допомоги Добропільської районної ради»;Грузчанський ФП;ФП;село;Грузьке;вулиця;Гутника;31
район;NA;Добропільський;1422000000;Комунальне некомерційне підприємство «Районний центр первинної медико-санітарної допомоги Добропільської районної ради»;Кучерів’ярський ФП;ФП;село;Кучерів Яр;вулиця;Садова;7а
район;NA;Костянтинівський;1422400000;Комунальне підприємство «Костянтинівський районний центр первинної медико-санітарної допомоги»;АЗПСМ с. Кіндратівка Костянтинівського району;АМ;село;Кіндратівка;вулиця;Заборського;13
район;NA;Костянтинівський;1422400000;Комунальне підприємство «Костянтинівський районний центр первинної медико-санітарної допомоги»;АЗПСМ;АМ;село;Іллінівка;вулиця;Адміністративна;42/5
район;NA;Костянтинівський;1422400000;Комунальне підприємство «Костянтинівський районний центр первинної медико-санітарної допомоги»;АЗПСМ;АМ;село;Кіндратівка;вулиця;Заборського;134
район;NA;Костянтинівський;1422400000;Комунальне підприємство «Костянтинівський районний центр первинної медико-санітарної допомоги»;АЗПСМ;АМ;селище;Клебан-Бик;вулиця;Шкільна;6б
район;NA;Костянтинівський;1422400000;Комунальне підприємство «Костянтинівський районний центр первинної медико-санітарної допомоги»;АЗПСМ с. Іллінівка Костянтинівського району;АМ;село;Іллінівка;вулиця;Адміністративна;42/3
район;NA;Костянтинівський;1422400000;Комунальне підприємство «Костянтинівський районний центр первинної медико-санітарної допомоги»;АЗПСМ с. Іванопілля Костянтинівського району;АМ;село;Іванопілля;вулиця;Садова;36-Б
район;NA;Костянтинівський;1422400000;Комунальне підприємство «Костянтинівський районний центр первинної медико-санітарної допомоги»;АЗПСМ с-ще Новодмитрівка Костянтинівського району;АМ;селище;Новодмитрівка;вулиця;Сонячна;10
район;NA;Костянтинівський;1422400000;Комунальне підприємство «Костянтинівський районний центр первинної медико-санітарної допомоги»;АЗПСМ с-ще Довга Балка Костянтинівського району;АМ;селище;Довга Балка;вулиця;Лісна;3А
район;NA;Костянтинівський;1422400000;Комунальне підприємство «Костянтинівський районний центр первинної медико-санітарної допомоги»;ФП с. Куртівка;ФП;село;Куртівка;вулиця;Центральна;52
район;NA;Костянтинівський;1422400000;Комунальне підприємство «Костянтинівський районний центр первинної медико-санітарної допомоги»;ФП с. Миколайпілля;ФП;село;Миколайпілля;вулиця;Гагаріна;29
район;NA;Костянтинівський;1422400000;Комунальне підприємство «Костянтинівський районний центр первинної медико-санітарної допомоги»;ФАП с. Плещіївка;ФП;село;Плещіївка;вулиця;Степова;2/4
район;NA;Костянтинівський;1422400000;Комунальне підприємство «Костянтинівський районний центр первинної медико-санітарної допомоги»;ФП Олександро-Шультине;ФП;село;Олександро-Шультине;вулиця;Центральна;44
район;NA;Костянтинівський;1422400000;Комунальне підприємство «Костянтинівський районний центр первинної медико-санітарної допомоги»;ФП с. Диліївка;ФП;село;Диліївка;вулиця;Догаєва;7
район;NA;Костянтинівський;1422400000;Комунальне підприємство «Костянтинівський районний центр первинної медико-санітарної допомоги»;ФАП с. Предтечине;ФП;село;Предтечине;вулиця;Центральна;28А
район;NA;Костянтинівський;1422400000;Комунальне підприємство «Костянтинівський районний центр первинної медико-санітарної допомоги»;ФП с-ще Червоне;ФП;селище;Червоне;вулиця;Панфілова;1
район;NA;Костянтинівський;1422400000;Комунальне підприємство «Костянтинівський районний центр первинної медико-санітарної допомоги»;ФАП с. Миколаївка;ФАП;село;Миколаївка;вулиця;Чкалова;3
район;NA;Костянтинівський;1422400000;Комунальне підприємство «Костянтинівський районний центр первинної медико-санітарної допомоги»;АЗПСМ с. Яблунівка Костянтинівського району;АМ;село;Яблунівка;вулиця;Центральна;124
район;NA;Костянтинівський;1422400000;Комунальне підприємство «Костянтинівський районний центр первинної медико-санітарної допомоги»;АЗПСМ с-ще Клебан-Бик Костянтинівського району;АМ;селище;Клебан-Бик;вулиця;Шкільна;6
район;NA;Костянтинівський;1422400000;Комунальне підприємство «Костянтинівський районний центр первинної медико-санітарної допомоги»;АЗПСМ с. Стара Миколаївка Костянтинівського району;АМ;село;Стара Миколаївка;вулиця;Вишнева;4
район;NA;Костянтинівський;1422400000;Комунальне підприємство «Костянтинівський районний центр первинної медико-санітарної допомоги»;ФАП с. Степанівка;ФАП;село;Степанівка;вулиця;Квіткова;11
район;NA;Костянтинівський;1422400000;Комунальне підприємство «Костянтинівський районний центр первинної медико-санітарної допомоги»;ФАП с. Полтавка;ФАП;село;Полтавка;вулиця;Ювілейна;19
район;NA;Костянтинівський;1422400000;Комунальне підприємство «Костянтинівський районний центр первинної медико-санітарної допомоги»;ФАП с. Нова Полтавка;ФАП;село;Нова Полтавка;вулиця;Широка;75
район;NA;Костянтинівський;1422400000;Комунальне підприємство «Костянтинівський районний центр первинної медико-санітарної допомоги»;ФАП с. Тарасівка;ФАП;село;Тарасівка;вулиця;Московська;75
район;NA;Костянтинівський;1422400000;Комунальне підприємство «Костянтинівський районний центр первинної медико-санітарної допомоги»;ФП с. Новооленівка;ФП;село;Новооленівка;вулиця;Спеціалістів;29
район;NA;Костянтинівський;1422400000;Комунальне підприємство «Костянтинівський районний центр первинної медико-санітарної допомоги»;ФП с. Калинове;ФП;село;Калинове;вулиця;Подольська;1
район;NA;Костянтинівський;1422400000;Комунальне підприємство «Костянтинівський районний центр первинної медико-санітарної допомоги»;ФАП с-ще Зоря;ПЗ;селище;Зоря;вулиця;Каспійська;1А
район;NA;Костянтинівський;1422400000;Комунальне підприємство «Костянтинівський районний центр первинної медико-санітарної допомоги»;ФАП с. Олександро-Калинове;ПЗ;село;Олександро-Калинове;вулиця;Шкільна;3
район;NA;Костянтинівський;1422400000;Комунальне підприємство «Костянтинівський районний центр первинної медико-санітарної допомоги»;АЗПСМ с. Віролюбівка;АМ;село;Віролюбівка;вулиця;Перемоги;66
район;NA;Костянтинівський;1422400000;Комунальне підприємство «Костянтинівський районний центр первинної медико-санітарної допомоги»;ФАП с. Білокузьминівка;ПЗ;село;Білокузьминівка;вулиця;Садова;40
район;NA;Костянтинівський;1422400000;Комунальне підприємство «Костянтинівський районний центр первинної медико-санітарної допомоги»;ФАП с. Маркове;ФАП;село;Маркове;вулиця;Молодогвардійців;99
район;NA;Костянтинівський;1422400000;Комунальне підприємство «Костянтинівський районний центр первинної медико-санітарної допомоги»;ФАП с. Торське;ФАП;село;Торське;вулиця;Ювілейна;27
район;NA;Костянтинівський;1422400000;Комунальне підприємство «Костянтинівський районний центр первинної медико-санітарної допомоги»;ФАП с. Софіївка;ФАП;село;Софіївка;вулиця;Дружби;2
район;NA;Мангушський;1423900000;Комунальне некомерційне підприємство «Мангушський центр первинної медико-санітарної допомоги»;Центральна АЗПСМ смт Мангуш;АГ;селище міського типу;Мангуш;вулиця;Поштова;22
район;NA;Мангушський;1423900000;Комунальне некомерційне підприємство «Мангушський центр первинної медико-санітарної допомоги»;АЗПСМ;АМ;селище;Мелекіне;вулиця;Набережна;33д
район;NA;Мангушський;1423900000;Комунальне некомерційне підприємство «Мангушський центр первинної медико-санітарної допомоги»;АЗПСМ с. Покровське;АМ;село;Покровське;провулок;Лікарняний;1
район;NA;Мангушський;1423900000;Комунальне некомерційне підприємство «Мангушський центр первинної медико-санітарної допомоги»;АЗПСМ с. Портівське;АМ;село;Портівське;вулиця;Мира;10
район;NA;Мангушський;1423900000;Комунальне некомерційне підприємство «Мангушський центр первинної медико-санітарної допомоги»;Амбулаторія ЗПСМ с. Мелекіне;АМ;село;Мелекіне;вулиця;Набережна;6
район;NA;Мангушський;1423900000;Комунальне некомерційне підприємство «Мангушський центр первинної медико-санітарної допомоги»;АЗПСМ смт Ялта;АМ;селище міського типу;Ялта;провулок;Радужний;8
район;NA;Мангушський;1423900000;Комунальне некомерційне підприємство «Мангушський центр первинної медико-санітарної допомоги»;Азовський ФП;ФП;село;Азовське;вулиця;Виноградна;1
район;NA;Мангушський;1423900000;Комунальне некомерційне підприємство «Мангушський центр первинної медико-санітарної допомоги»;Бердянський ФАП;ПЗ;село;Бердянське;вулиця;Київська;59
район;NA;Мангушський;1423900000;Комунальне некомерційне підприємство «Мангушський центр первинної медико-санітарної допомоги»;Камишуватський ФАП;ПЗ;село;Комишувате;вулиця;Львівська;1
район;NA;Мангушський;1423900000;Комунальне некомерційне підприємство «Мангушський центр первинної медико-санітарної допомоги»;Білосарайський ФАП;ПЗ;село;Білосарайська Коса;вулиця;Безуха;50
район;NA;Мангушський;1423900000;Комунальне некомерційне підприємство «Мангушський центр первинної медико-санітарної допомоги»;Огородній ФП;ФП;село;Огороднє;вулиця;Степова;1
район;NA;Мангушський;1423900000;Комунальне некомерційне підприємство «Мангушський центр первинної медико-санітарної допомоги»;Український ФП;ФП;село;Українка;вулиця;Центральна;15
район;NA;Мангушський;1423900000;Комунальне некомерційне підприємство «Мангушський центр первинної медико-санітарної допомоги»;Приміський ФП;ФП;село;Приміське;вулиця;Вишнева;39
район;NA;Мангушський;1423900000;Комунальне некомерційне підприємство «Мангушський центр первинної медико-санітарної допомоги»;Червоний ФП;ФП;село;Червоне;вулиця;Мира;1
район;NA;Мангушський;1423900000;Комунальне некомерційне підприємство «Мангушський центр первинної медико-санітарної допомоги»;ФП с. Широка Балка;ФП;село;Широка Балка;вулиця;Степна;1
район;NA;Мангушський;1423900000;Комунальне некомерційне підприємство «Мангушський центр первинної медико-санітарної допомоги»;Приазовський ФАП;ПЗ;село;Приазовське;вулиця;Центральна;5
район;NA;Мангушський;1423900000;Комунальне некомерційне підприємство «Мангушський центр первинної медико-санітарної допомоги»;Дем’янівський ФАП;ПЗ;село;Дем’янівка;вулиця;Шкільна;3
район;NA;Мангушський;1423900000;Комунальне некомерційне підприємство «Мангушський центр первинної медико-санітарної допомоги»;ФП с. Агробаза;ФП;село;Агробаза;вулиця;Зелена;22
район;NA;Мангушський;1423900000;Комунальне некомерційне підприємство «Мангушський центр первинної медико-санітарної допомоги»;АЗПСМ с. Урзуф;АМ;село;Урзуф;вулиця;Центральна;52
район;NA;Мангушський;1423900000;Комунальне некомерційне підприємство «Мангушський центр первинної медико-санітарної допомоги»;Юр’ївський ФП;ПЗ;село;Юр’ївка;вулиця;Набережна;30а
район;NA;Мангушський;1423900000;Комунальне некомерційне підприємство «Мангушський центр первинної медико-санітарної допомоги»;Захарівський ФАП;ПЗ;село;Захарівка;вулиця;Гагаріна;5
район;NA;Мангушський;1423900000;Комунальне некомерційне підприємство «Мангушський центр первинної медико-санітарної допомоги»;Стародубівський ФАП;ПЗ;село;Стародубівка;вулиця;Центральна;34
район;NA;Мар’їнський;1423300000;Комунальне некомерційне підприємство «Центр первинної медико-санітарної допомоги Мар'їнської районної ради»;Мар’їнська АЗПСМ;АГ;місто;Мар’їнка;проспект;Дружби;22-А
район;NA;Мар’їнський;1423300000;Комунальне некомерційне підприємство «Центр первинної медико-санітарної допомоги Мар'їнської районної ради»;Красногорівська АЗПСМ;АГ;місто;Красногорівка;вулиця;Нахімова;1
район;NA;Мар’їнський;1423300000;Комунальне некомерційне підприємство «Центр первинної медико-санітарної допомоги Мар'їнської районної ради»;АЗПСМ с. Єлизаветівка;АМ;село;Єлизаветівка;вулиця;Паркова;34
район;NA;Мар’їнський;1423300000;Комунальне некомерційне підприємство «Центр первинної медико-санітарної допомоги Мар'їнської районної ради»;АЗПСМ с. Богоявленка;АМ;село;Богоявленка;вулиця;Первомайська;72а
район;NA;Мар’їнський;1423300000;Комунальне некомерційне підприємство «Центр первинної медико-санітарної допомоги Мар'їнської районної ради»;Максимільянівська АЗПСМ;АМ;село;Максимільянівка;вулиця;Центральна;100а
район;NA;Мар’їнський;1423300000;Комунальне некомерційне підприємство «Центр первинної медико-санітарної допомоги Мар'їнської районної ради»;Галицинівська АЗПСМ;АМ;село;Галицинівка;вулиця;Сонячна;29
район;NA;Мар’їнський;1423300000;Комунальне некомерційне підприємство «Центр первинної медико-санітарної допомоги Мар'їнської районної ради»;ФП с. Лісівка;ФП;село;Лісівка;вулиця;Пушкіна;26
район;NA;Мар’їнський;1423300000;Комунальне некомерційне підприємство «Центр первинної медико-санітарної допомоги Мар'їнської районної ради»;ФП с. Карлівка;ФП;село;Карлівка;вулиця;Вишнева;3/2
район;NA;Мар’їнський;1423300000;Комунальне некомерційне підприємство «Центр первинної медико-санітарної допомоги Мар'їнської районної ради»;ФП с. Ізмайлівка;ФП;село;Ізмайлівка;вулиця;Рєпіна;30
район;NA;Мар’їнський;1423300000;Комунальне некомерційне підприємство «Центр первинної медико-санітарної допомоги Мар'їнської районної ради»;ФАП с. Зоряне;ПЗ;село;Зоряне;вулиця;Миру;2б
район;NA;Мар’їнський;1423300000;Комунальне некомерційне підприємство «Центр первинної медико-санітарної допомоги Мар'їнської районної ради»;ФАП с. Новоселидівка;ПЗ;село;Новоселидівка;вулиця;Миру;2
район;NA;Мар’їнський;1423300000;Комунальне некомерційне підприємство «Центр первинної медико-санітарної допомоги Мар'їнської районної ради»;ФП с. Вовченка;ПЗ;село;Вовченка;вулиця;Центральна;58-а
район;NA;Мар’їнський;1423300000;Комунальне некомерційне підприємство «Центр первинної медико-санітарної допомоги Мар'їнської районної ради»;ФП с. Костянтинопільське;ФАП;село;Костянтинопільське;вулиця;Острівська;34
район;NA;Мар’їнський;1423300000;Комунальне некомерційне підприємство «Центр первинної медико-санітарної допомоги Мар'їнської районної ради»;Курахівська АЗПСМ №1;АГ;місто;Курахове;вулиця;Мечнікова;14
район;NA;Мар’їнський;1423300000;Комунальне некомерційне підприємство «Центр первинної медико-санітарної допомоги Мар'їнської районної ради»;Курахівська АЗПСМ №2;АМ;місто;Курахове;вулиця;Жуковського;12б
район;NA;Мар’їнський;1423300000;Комунальне некомерційне підприємство «Центр первинної медико-санітарної допомоги Мар'їнської районної ради»;Дачненська АЗПСМ;АМ;село;Дачне;вулиця;Молодіжна;2
район;NA;Мар’їнський;1423300000;Комунальне некомерційне підприємство «Центр первинної медико-санітарної допомоги Мар'їнської районної ради»;ФАП с. Успенівка;ФАП;село;Успенівка;вулиця;Центральна;36-а
район;NA;Мар’їнський;1423300000;Комунальне некомерційне підприємство «Центр первинної медико-санітарної допомоги Мар'їнської районної ради»;ФП с. Дальнє;ФП;село;Дальнє;вулиця;Світла;1-а
район;NA;Мар’їнський;1423300000;Комунальне некомерційне підприємство «Центр первинної медико-санітарної допомоги Мар'їнської районної ради»;Єлизаветівська АЗПСМ;АМ;село;Єлизаветівка;вулиця;Центральна;90
район;NA;Мар’їнський;1423300000;Комунальне некомерційне підприємство «Центр первинної медико-санітарної допомоги Мар'їнської районної ради»;Катеринівська АЗПСМ;АМ;село;Катеринівка;вулиця;Центральна;37-а
район;NA;Мар’їнський;1423300000;Комунальне некомерційне підприємство «Центр первинної медико-санітарної допомоги Мар'їнської районної ради»;ФП с. Водяне;ФП;село;Водяне;вулиця;Ювілейна;3
район;NA;Мар’їнський;1423300000;Комунальне некомерційне підприємство «Центр первинної медико-санітарної допомоги Мар'їнської районної ради»;ФАП с. Костянтинівка;ПЗ;село;Костянтинівка;вулиця;Миру;68-а
район;NA;Мар’їнський;1423300000;Комунальне некомерційне підприємство «Центр первинної медико-санітарної допомоги Мар'їнської районної ради»;Павлівська АЗПСМ;АМ;село;Павлівка;вулиця;Садова;67
район;NA;Мар’їнський;1423300000;Комунальне некомерційне підприємство «Центр первинної медико-санітарної допомоги Мар'їнської районної ради»;Новоукраїнська АЗПСМ;АМ;село;Новоукраїнка;вулиця;Молодіжна;15
район;NA;Мар’їнський;1423300000;Комунальне некомерційне підприємство «Центр первинної медико-санітарної допомоги Мар'їнської районної ради»;ФАП с. Пречистівка;ПЗ;село;Пречистівка;вулиця;Центральна;48-а
район;NA;Мар’їнський;1423300000;Комунальне некомерційне підприємство «Центр первинної медико-санітарної допомоги Мар'їнської районної ради»;Новомихайлівська АЗПСМ;АМ;село;Новомихайлівка;вулиця;Соборна;49
район;NA;Мар’їнський;1423300000;Комунальне некомерційне підприємство «Центр первинної медико-санітарної допомоги Мар'їнської районної ради»;Степненська АЗПСМ;АМ;село;Степне;вулиця;Центральна;2
район;NA;Мар’їнський;1423300000;Комунальне некомерційне підприємство «Центр первинної медико-санітарної допомоги Мар'їнської районної ради»;ФП с. Славне;ФП;село;Славне;вулиця;Вокацієнко;6
район;NA;Мар’їнський;1423300000;Комунальне некомерційне підприємство «Центр первинної медико-санітарної допомоги Мар'їнської районної ради»;ФП с. Березове;ФП;село;Березове;вулиця;Трудова;5
район;NA;Мар’їнський;1423300000;Комунальне некомерційне підприємство «Центр первинної медико-санітарної допомоги Мар'їнської районної ради»;ФП с. Солодке;ФП;село;Солодке;вулиця;Кринична;35
район;NA;Мар’їнський;1423300000;Комунальне некомерційне підприємство «Центр первинної медико-санітарної допомоги Мар'їнської районної ради»;ФАП с. Максимівка;ФАП;село;Максимівка;вулиця;Миру;1
район;NA;Нікольський;1421700000;Комунальне некомерційне підприємство «Центр первинної медико-санітарної допомоги Нікольської районної ради Донецької області»;Центральна АЗПСМ смт Нікольське;АГ;селище міського типу;Нікольське;вулиця;Свободи;1
район;NA;Нікольський;1421700000;Комунальне некомерційне підприємство «Центр первинної медико-санітарної допомоги Нікольської районної ради Донецької області»;АЗПСМ с. Темрюк;АМ;село;Темрюк;вулиця;Шкільна;25а
район;NA;Нікольський;1421700000;Комунальне некомерційне підприємство «Центр первинної медико-санітарної допомоги Нікольської районної ради Донецької області»;АЗПСМ с. Тополине;АМ;село;Тополине;вулиця;Паркова;12
район;NA;Нікольський;1421700000;Комунальне некомерційне підприємство «Центр первинної медико-санітарної допомоги Нікольської районної ради Донецької області»;ФАП с. Малинівка;ПЗ;село;Малинівка;вулиця;Шкільна;14
район;NA;Нікольський;1421700000;Комунальне некомерційне підприємство «Центр первинної медико-санітарної допомоги Нікольської районної ради Донецької області»;ФП с. Новогригорівка;ПЗ;село;Новогригорівка;вулиця;Центральна;15
район;NA;Нікольський;1421700000;Комунальне некомерційне підприємство «Центр первинної медико-санітарної допомоги Нікольської районної ради Донецької області»;АЗПСМ с. Зоря;АМ;село;Зоря;вулиця;Молодіжна;2б
район;NA;Нікольський;1421700000;Комунальне некомерційне підприємство «Центр первинної медико-санітарної допомоги Нікольської районної ради Донецької області»;АЗПСМ с. Касянівка;АМ;село;Касянівка;вулиця;Шкільна;17
район;NA;Нікольський;1421700000;Комунальне некомерційне підприємство «Центр первинної медико-санітарної допомоги Нікольської районної ради Донецької області»;ФП с. Кирилівка;ФП;село;Кирилівка;вулиця;Миру;54
район;NA;Нікольський;1421700000;Комунальне некомерційне підприємство «Центр первинної медико-санітарної допомоги Нікольської районної ради Донецької області»;ФП с. Кременівка;ПЗ;село;Кременівка;вулиця;Шкільна;44
район;NA;Нікольський;1421700000;Комунальне некомерційне підприємство «Центр первинної медико-санітарної допомоги Нікольської районної ради Донецької області»;ФАП с. Кальчик;ПЗ;село;Кальчик;провулок;Больничний;1а/1
район;NA;Нікольський;1421700000;Комунальне некомерційне підприємство «Центр первинної медико-санітарної допомоги Нікольської районної ради Донецької області»;ФП с. Македонівка;ФП;село;Македонівка;вулиця;Нова;14
район;NA;Нікольський;1421700000;Комунальне некомерційне підприємство «Центр первинної медико-санітарної допомоги Нікольської районної ради Донецької області»;АЗПСМ с. Малоянисоль;АМ;село;Малоянисоль;вулиця;Центральна;2
район;NA;Нікольський;1421700000;Комунальне некомерційне підприємство «Центр первинної медико-санітарної допомоги Нікольської районної ради Донецької області»;ФП с. Труженка;ФП;село;Труженка;вулиця;Центральна;16/1
район;NA;Нікольський;1421700000;Комунальне некомерційне підприємство «Центр первинної медико-санітарної допомоги Нікольської районної ради Донецької області»;ФП с. Новокраснівка;ПЗ;село;Новокраснівка;вулиця;Миру;1
район;NA;Нікольський;1421700000;Комунальне некомерційне підприємство «Центр первинної медико-санітарної допомоги Нікольської районної ради Донецької області»;ФП с. Новоянисоль;ПЗ;село;Новоянисоль;вулиця;Центральна;8
район;NA;Нікольський;1421700000;Комунальне некомерційне підприємство «Центр первинної медико-санітарної допомоги Нікольської районної ради Донецької області»;ФП с. Республіка;ПЗ;село;Республіка;вулиця;Шкільна;73
район;NA;Нікольський;1421700000;Комунальне некомерційне підприємство «Центр первинної медико-санітарної допомоги Нікольської районної ради Донецької області»;АЗПСМ с. Темрюк;АМ;село;Темрюк;вулиця;Машковського;23
район;NA;Нікольський;1421700000;Комунальне некомерційне підприємство «Центр первинної медико-санітарної допомоги Нікольської районної ради Донецької області»;ФП с. Зелений Яр;ПЗ;село;Зелений Яр;вулиця;Молодіжна;10
район;NA;Нікольський;1421700000;Комунальне некомерційне підприємство «Центр первинної медико-санітарної допомоги Нікольської районної ради Донецької області»;ФП с. Федорівка;ФП;село;Федорівка;вулиця;Центральна;3
район;NA;Нікольський;1421700000;Комунальне некомерційне підприємство «Центр первинної медико-санітарної допомоги Нікольської районної ради Донецької області»;ФП с. Новороманівка;ФП;село;Новороманівка;вулиця;З. Космодемянської;43
район;NA;Нікольський;1421700000;Комунальне некомерційне підприємство «Центр первинної медико-санітарної допомоги Нікольської районної ради Донецької області»;ФАП с. Бойове;ПЗ;село;Бойове;провулок;Южний;2
район;NA;Олександрівський;1420300000;Комунальне підприємство «Олександрівський центр первинної медико-санітарної допомоги Олександрівської районної ради Донецької області»;Олександрівська АЗПСМ;АГ;селище міського типу;Олександрівка;вулиця;Навчальна;8А
район;NA;Олександрівський;1420300000;Комунальне підприємство «Олександрівський центр первинної медико-санітарної допомоги Олександрівської районної ради Донецької області»;АЗПСМ с. Михайлівка;АМ;село;Михайлівка;вулиця;Центральна;1
район;NA;Олександрівський;1420300000;Комунальне підприємство «Олександрівський центр первинної медико-санітарної допомоги Олександрівської районної ради Донецької області»;Новополтавська АЗПСМ;АМ;село;Новополтавка;вулиця;Паркова;83А
район;NA;Олександрівський;1420300000;Комунальне підприємство «Олександрівський центр первинної медико-санітарної допомоги Олександрівської районної ради Донецької області»;ФП с. Дмитро-Дар’ївка;ФП;село;Дмитро-Дар’ївка;вулиця;Космонавтів;37А
район;NA;Олександрівський;1420300000;Комунальне підприємство «Олександрівський центр первинної медико-санітарної допомоги Олександрівської районної ради Донецької області»;ФП с. Дмитроколине;ПЗ;село;Дмитроколине;вулиця;Миру;47
район;NA;Олександрівський;1420300000;Комунальне підприємство «Олександрівський центр первинної медико-санітарної допомоги Олександрівської районної ради Донецької області»;ФП с. Новоолександрівка;ПЗ;село;Новоолександрівка;вулиця;Стадіонна;15
район;NA;Олександрівський;1420300000;Комунальне підприємство «Олександрівський центр первинної медико-санітарної допомоги Олександрівської районної ради Донецької області»;ФП с. Новобахметьєве;ФП;село;Новобахметьєве;вулиця;Молодіжна;4
район;NA;Олександрівський;1420300000;Комунальне підприємство «Олександрівський центр первинної медико-санітарної допомоги Олександрівської районної ради Донецької області»;ФП с. Іверське;ПЗ;село;Іверське;вулиця;Центральна;4
район;NA;Олександрівський;1420300000;Комунальне підприємство «Олександрівський центр первинної медико-санітарної допомоги Олександрівської районної ради Донецької області»;ФП с. Шостаківка;ФП;село;Шостаківка;вулиця;Космонавтів;77А
район;NA;Олександрівський;1420300000;Комунальне підприємство «Олександрівський центр первинної медико-санітарної допомоги Олександрівської районної ради Донецької області»;Очеретинська АЗПСМ;АМ;село;Очеретине;вулиця;Молодіжна;1
район;NA;Олександрівський;1420300000;Комунальне підприємство «Олександрівський центр первинної медико-санітарної допомоги Олександрівської районної ради Донецької області»;Михайлівська амбулаторія;АМ;село;Михайлівка;вулиця;Шевченко;77А
район;NA;Олександрівський;1420300000;Комунальне підприємство «Олександрівський центр первинної медико-санітарної допомоги Олександрівської районної ради Донецької області»;ФП с. Некременне;ПЗ;село;Некременне;вулиця;Дружби Народів;1
район;NA;Олександрівський;1420300000;Комунальне підприємство «Олександрівський центр первинної медико-санітарної допомоги Олександрівської районної ради Донецької області»;ФП с. Староварварівка;ПЗ;село;Староварварівка;вулиця;Весела;2
район;NA;Олександрівський;1420300000;Комунальне підприємство «Олександрівський центр первинної медико-санітарної допомоги Олександрівської районної ради Донецької області»;ФП с. Криниці;ПЗ;село;Криниці;вулиця;Б. Хмельницького;1
район;NA;Олександрівський;1420300000;Комунальне підприємство «Олександрівський центр первинної медико-санітарної допомоги Олександрівської районної ради Донецької області»;Степанівська АЗПСМ;АМ;село;Степанівка;вулиця;Степна;4
район;NA;Олександрівський;1420300000;Комунальне підприємство «Олександрівський центр первинної медико-санітарної допомоги Олександрівської районної ради Донецької області»;Спаськомихайлівська АЗПСМ;АМ;село;Спасько-Михайлівка;вулиця;Центральна;102
район;NA;Олександрівський;1420300000;Комунальне підприємство «Олександрівський центр первинної медико-санітарної допомоги Олександрівської районної ради Донецької області»;Мирнодолинська АЗПСМ;АМ;село;Мирна Долина;вулиця;Шкільна;7А
район;NA;Олександрівський;1420300000;Комунальне підприємство «Олександрівський центр первинної медико-санітарної допомоги Олександрівської районної ради Донецької області»;ФП с. Петрівка Друга;ПЗ;село;Петрівка Друга;вулиця;Шкільна;2
район;NA;Олександрівський;1420300000;Комунальне підприємство «Олександрівський центр первинної медико-санітарної допомоги Олександрівської районної ради Донецької області»;ФП с. Весела Гора;ПЗ;село;Весела Гора;вулиця;Центральна;102
район;NA;Покровський;1422700000;Комунальне некомерційне підприємство «Покровський районний центр первинної медико-санітарної допомоги»;Центральна АЗПСМ;АГ;місто;Покровськ;вулиця;М. Москаленко;161
район;NA;Покровський;1422700000;Комунальне некомерційне підприємство «Покровський районний центр первинної медико-санітарної допомоги»;АЗПСМ с. Новоолександрівка;АМ;село;Новоолександрівка;вулиця;Гагаріна;42а
район;NA;Покровський;1422700000;Комунальне некомерційне підприємство «Покровський районний центр первинної медико-санітарної допомоги»;АЗПСМ с. Гришине;АМ;село;Гришине;провулок;Гагарина;16
район;NA;Покровський;1422700000;Комунальне некомерційне підприємство «Покровський районний центр первинної медико-санітарної допомоги»;АЗПСМ с. Новотроїцьке;АМ;село;Новотроїцьке;вулиця;Центральна;25Ж
район;NA;Покровський;1422700000;Комунальне некомерційне підприємство «Покровський районний центр первинної медико-санітарної допомоги»;ФАП с-ще Котлине;ФАП;селище;Котлине;вулиця;Спортивна;2/2
район;NA;Покровський;1422700000;Комунальне некомерційне підприємство «Покровський районний центр первинної медико-санітарної допомоги»;ФАП с-ще Перше Травня;ПЗ;селище;Перше Травня;вулиця;Гагарина;9
район;NA;Покровський;1422700000;Комунальне некомерційне підприємство «Покровський районний центр первинної медико-санітарної допомоги»;ФАП с. Піщане;ФАП;село;Піщане;вулиця;Шахтарська;11
район;NA;Покровський;1422700000;Комунальне некомерційне підприємство «Покровський районний центр первинної медико-санітарної допомоги»;ФАП с. Звірове;ПЗ;село;Звірове;вулиця;Сазонова;89
район;NA;Покровський;1422700000;Комунальне некомерційне підприємство «Покровський районний центр первинної медико-санітарної допомоги»;ФАП с. Красний Лиман;ПЗ;село;Красний Лиман;вулиця;Контемирова;1
район;NA;Покровський;1422700000;Комунальне некомерційне підприємство «Покровський районний центр первинної медико-санітарної допомоги»;ФАП с. Рівне;ПЗ;село;Рівне;вулиця;Центральна;24
район;NA;Покровський;1422700000;Комунальне некомерційне підприємство «Покровський районний центр первинної медико-санітарної допомоги»;ФАП с. Петрівка;ПЗ;село;Петрівка;вулиця;Центральна;26/2
район;NA;Покровський;1422700000;Комунальне некомерційне підприємство «Покровський районний центр первинної медико-санітарної допомоги»;ФАП с. Лисівка;ПЗ;село;Лисівка;вулиця;Центральна;67
район;NA;Покровський;1422700000;Комунальне некомерційне підприємство «Покровський районний центр первинної медико-санітарної допомоги»;ФАП с. Новопавлівка;ПЗ;село;Новопавлівка;вулиця;Яблунева;130
район;NA;Покровський;1422700000;Комунальне некомерційне підприємство «Покровський районний центр первинної медико-санітарної допомоги»;ФАП с. Даченське;ФАП;село;Даченське;вулиця;Миру;5а
район;NA;Покровський;1422700000;Комунальне некомерційне підприємство «Покровський районний центр первинної медико-санітарної допомоги»;АЗПСМ смт Удачне;АМ;селище міського типу;Удачне;вулиця;Северна;6
район;NA;Покровський;1422700000;Комунальне некомерційне підприємство «Покровський районний центр первинної медико-санітарної допомоги»;ФАП с. Успенівка;ПЗ;село;Успенівка;вулиця;Центральна;29а
район;NA;Покровський;1422700000;Комунальне некомерційне підприємство «Покровський районний центр первинної медико-санітарної допомоги»;АЗПСМ с. Срібне;АМ;село;Срібне;вулиця;Дружби;57
район;NA;Покровський;1422700000;Комунальне некомерційне підприємство «Покровський районний центр первинної медико-санітарної допомоги»;ФАП с. Новоєлизаветівка;ПЗ;село;Новоєлизаветівка;вулиця;Широка;17
район;NA;Покровський;1422700000;Комунальне некомерційне підприємство «Покровський районний центр первинної медико-санітарної допомоги»;ФАП с. Ясинове;ФАП;село;Ясинове;вулиця;Рассвєт;104
район;NA;Покровський;1422700000;Комунальне некомерційне підприємство «Покровський районний центр первинної медико-санітарної допомоги»;ФАП с. Горіхове;ПЗ;село;Горіхове;вулиця;Нова;128
район;NA;Покровський;1422700000;Комунальне некомерційне підприємство «Покровський районний центр первинної медико-санітарної допомоги»;АЗПСМ смт Новоекономічне;АМ;селище міського типу;Новоекономічне;вулиця;Гоголя;41
район;NA;Покровський;1422700000;Комунальне некомерційне підприємство «Покровський районний центр первинної медико-санітарної допомоги»;АЗПСМ смт Гродівка;АМ;селище міського типу;Гродівка;вулиця;Горького;31а
район;NA;Покровський;1422700000;Комунальне некомерційне підприємство «Покровський районний центр первинної медико-санітарної допомоги»;АЗПСМ с. Сергіївка;АМ;село;Сергіївка;вулиця;Центральна;18
район;NA;Покровський;1422700000;Комунальне некомерційне підприємство «Покровський районний центр первинної медико-санітарної допомоги»;ФАП с. Прогрес;ФАП;село;Прогрес;вулиця;Гагарина;10
район;NA;Покровський;1422700000;Комунальне некомерційне підприємство «Покровський районний центр первинної медико-санітарної допомоги»;ФАП с. Малинівка;ПЗ;село;Малинівка;вулиця;Центральна;1
район;NA;Покровський;1422700000;Комунальне некомерційне підприємство «Покровський районний центр первинної медико-санітарної допомоги»;ФАП с. Миролюбівка;ПЗ;село;Миролюбівка;вулиця;Центральна;1
район;NA;Покровський;1422700000;Комунальне некомерційне підприємство «Покровський районний центр первинної медико-санітарної допомоги»;ФАП с. Іванівка;ПЗ;село;Іванівка;вулиця;Центральна;70
район;NA;Покровський;1422700000;Комунальне некомерційне підприємство «Покровський районний центр первинної медико-санітарної допомоги»;АЗПСМ с. Миколаївка;АМ;село;Миколаївка;вулиця;Гагарина;1
район;NA;Покровський;1422700000;Комунальне некомерційне підприємство «Покровський районний центр первинної медико-санітарної допомоги»;ФАП с. Михайлівка;ПЗ;село;Михайлівка;вулиця;Шкільна;32
район;NA;Покровський;1422700000;Комунальне некомерційне підприємство «Покровський районний центр первинної медико-санітарної допомоги»;ФАП Сонцівський;ПЗ;село;Сонцівка;вулиця;Центральна;33а
район;NA;Покровський;1422700000;Комунальне некомерційне підприємство «Покровський районний центр первинної медико-санітарної допомоги»;ФАП с. Мемрик;ФАП;село;Мемрик;вулиця;Центральна;1
район;NA;Покровський;1422700000;Комунальне некомерційне підприємство «Покровський районний центр первинної медико-санітарної допомоги»;АЗПСМ с. Новоолександрівка;АМ;село;Новоолександрівка;вулиця;Гагаріна;52
район;NA;Покровський;1422700000;Комунальне некомерційне підприємство «Покровський районний центр первинної медико-санітарної допомоги»;ФП с. Берестки;ФП;село;Берестки;вулиця;Центральна;37а
район;NA;Покровський;1422700000;Комунальне некомерційне підприємство «Покровський районний центр первинної медико-санітарної допомоги»;ФП с. Зоря;ФП;село;Зоря;вулиця;Центральна;42
район;NA;Слов’янський;1424200000;Комунальне підприємство «Центр первинної медико-санітарної допомоги Слов’янської районної ради Донецької області»;АЗПСМ м. Миколаївка;АГ;місто;Миколаївка;вулиця;Миру;13
район;NA;Слов’янський;1424200000;Комунальне підприємство «Центр первинної медико-санітарної допомоги Слов’янської районної ради Донецької області»;АЗПСМ;АМ;село;Маяки;вулиця;Гагаріна;30а
район;NA;Слов’янський;1424200000;Комунальне підприємство «Центр первинної медико-санітарної допомоги Слов’янської районної ради Донецької області»;АЗПСМ;АМ;село;Прелесне;вулиця;Гагаріна;8
район;NA;Слов’янський;1424200000;Комунальне підприємство «Центр первинної медико-санітарної допомоги Слов’янської районної ради Донецької області»;АЗПСМ смт Райгородок;АМ;селище міського типу;Райгородок;вулиця;Затишна;6а
район;NA;Слов’янський;1424200000;Комунальне підприємство «Центр первинної медико-санітарної допомоги Слов’янської районної ради Донецької області»;АЗПСМ с. Рай-Олександрівка;АМ;село;Рай-Олександрівка;вулиця;Шкільна;63-а
район;NA;Слов’янський;1424200000;Комунальне підприємство «Центр первинної медико-санітарної допомоги Слов’янської районної ради Донецької області»;ФАП смт Донецьке;ПЗ;селище міського типу;Донецьке;вулиця;Миру;1
район;NA;Слов’янський;1424200000;Комунальне підприємство «Центр первинної медико-санітарної допомоги Слов’янської районної ради Донецької області»;ФАП с. Карпівка;ФП;село;Карпівка;вулиця;Центральна;41а
район;NA;Слов’янський;1424200000;Комунальне підприємство «Центр первинної медико-санітарної допомоги Слов’янської районної ради Донецької області»;ФАП с. Селезнівка;ФАП;село;Селезнівка;вулиця;Садова;41
район;NA;Слов’янський;1424200000;Комунальне підприємство «Центр первинної медико-санітарної допомоги Слов’янської районної ради Донецької області»;ФП с. Никанорівка;ФП;село;Никонорівка;вулиця;Підгорна;42А
район;NA;Слов’янський;1424200000;Комунальне підприємство «Центр первинної медико-санітарної допомоги Слов’янської районної ради Донецької області»;ФАП с. Малинівка;ПЗ;село;Малинівка;вулиця;Мороза;6
район;NA;Слов’янський;1424200000;Комунальне підприємство «Центр первинної медико-санітарної допомоги Слов’янської районної ради Донецької області»;АЗПСМ с-ще Мирне;АМ;селище;Мирне;вулиця;Ювілейна;9
район;NA;Слов’янський;1424200000;Комунальне підприємство «Центр первинної медико-санітарної допомоги Слов’янської районної ради Донецької області»;АЗПСМ с. Хрестище;АМ;село;Хрестище;вулиця;Шкільна;1
район;NA;Слов’янський;1424200000;Комунальне підприємство «Центр первинної медико-санітарної допомоги Слов’янської районної ради Донецької області»;ФП с. Микільське;ФП;село;Микільське;вулиця;Миру;93
район;NA;Слов’янський;1424200000;Комунальне підприємство «Центр первинної медико-санітарної допомоги Слов’янської районної ради Донецької області»;ФАП с. Долина;ФАП;село;Долина;вулиця;Харківська;55А
район;NA;Слов’янський;1424200000;Комунальне підприємство «Центр первинної медико-санітарної допомоги Слов’янської районної ради Донецької області»;АЗПСМ с. Прелесне;АМ;село;Прелесне;вулиця;Садова;1-а
район;NA;Слов’янський;1424200000;Комунальне підприємство «Центр первинної медико-санітарної допомоги Слов’янської районної ради Донецької області»;АЗПСМ смт Билбасівка;АМ;селище міського типу;Билбасівка;вулиця;Затишна;6а
район;NA;Слов’янський;1424200000;Комунальне підприємство «Центр первинної медико-санітарної допомоги Слов’янської районної ради Донецької області»;АЗПСМ смт Черкаське;АМ;селище міського типу;Черкаське;вулиця;Миру;4
район;NA;Слов’янський;1424200000;Комунальне підприємство «Центр первинної медико-санітарної допомоги Слов’янської районної ради Донецької області»;ФАП с. Привілля;ПЗ;село;Привілля;вулиця;Кучеренко;12а
район;NA;Слов’янський;1424200000;Комунальне підприємство «Центр первинної медико-санітарної допомоги Слов’янської районної ради Донецької області»;ФАП с. Олександрівка;ПЗ;село;Олександрівка;вулиця;Шкільна;58
район;NA;Слов’янський;1424200000;Комунальне підприємство «Центр первинної медико-санітарної допомоги Слов’янської районної ради Донецької області»;ФП с. Новомиколаївка;ПЗ;село;Новомиколаївка;вулиця;Молодіжна;4
район;NA;Слов’янський;1424200000;Комунальне підприємство «Центр первинної медико-санітарної допомоги Слов’янської районної ради Донецької області»;ФП с. Майдан;ФП;село;Майдан;вулиця;Центральна;70
район;NA;Слов’янський;1424200000;Комунальне підприємство «Центр первинної медико-санітарної допомоги Слов’янської районної ради Донецької області»;ФАП с. Новоселівка;ФАП;село;Новоселівка;провулок;Луговий;2
район;NA;Слов’янський;1424200000;Комунальне підприємство «Центр первинної медико-санітарної допомоги Слов’янської районної ради Донецької області»;ФАП с. Дмитрівка;ПЗ;село;Дмитрівка;вулиця;Пушкіна;26а
район;NA;Слов’янський;1424200000;Комунальне підприємство «Центр первинної медико-санітарної допомоги Слов’янської районної ради Донецької області»;АЗПСМ с. Маяки;АМ;село;Маяки;вулиця;Гагаріна;30
район;NA;Слов’янський;1424200000;Комунальне підприємство «Центр первинної медико-санітарної допомоги Слов’янської районної ради Донецької області»;ФП с. Сидорове;ФП;село;Сидорове;вулиця;Первомайська;22
район;NA;Слов’янський;1424200000;Комунальне підприємство «Центр первинної медико-санітарної допомоги Слов’янської районної ради Донецької області»;ФАМ с. Богородичне;ПЗ;село;Богородичне;вулиця;Центральна;42А
район;NA;Слов’янський;1424200000;Комунальне підприємство «Центр первинної медико-санітарної допомоги Слов’янської районної ради Донецької області»;ФП с. Тетянівка;ФП;село;Тетянівка;вулиця;Центральна;27
район;NA;Слов’янський;1424200000;Комунальне підприємство «Центр первинної медико-санітарної допомоги Слов’янської районної ради Донецької області»;АЗПСМ с. Сергіївка;АМ;село;Сергіївка;вулиця;Больнична;1
район;NA;Слов’янський;1424200000;Комунальне підприємство «Центр первинної медико-санітарної допомоги Слов’янської районної ради Донецької області»;ФАП с. Андріївка;ПЗ;село;Андріївка;вулиця;Труда;45
район;NA;Слов’янський;1424200000;Комунальне підприємство «Центр первинної медико-санітарної допомоги Слов’янської районної ради Донецької області»;ФП с. Роганське;ФП;село;Роганське;вулиця;Сонячна;7
район;NA;Ясинуватський;1425500000;Комунальне некомерційне підприємство «Центр первинної медико-санітарної допомоги Ясинуватської районної ради»;Центральна АЗПСМ смт Очеретине;АГ;селище міського типу;Очеретине;вулиця;Заводська;1
район;NA;Ясинуватський;1425500000;Комунальне некомерційне підприємство «Центр первинної медико-санітарної допомоги Ясинуватської районної ради»;АЗПСМ;АМ;селище міського типу;Верхньоторецьке;вулиця;Відродження;83а
район;NA;Ясинуватський;1425500000;Комунальне некомерційне підприємство «Центр первинної медико-санітарної допомоги Ясинуватської районної ради»;ФП с. Новокалинове;ПЗ;село;Новокалинове;вулиця;Бібліотечна;11
район;NA;Ясинуватський;1425500000;Комунальне некомерційне підприємство «Центр первинної медико-санітарної допомоги Ясинуватської районної ради»;ФП с. Соловйове;ПЗ;село;Соловйове;вулиця;Чкалова;10
район;NA;Ясинуватський;1425500000;Комунальне некомерційне підприємство «Центр первинної медико-санітарної допомоги Ясинуватської районної ради»;ФП с. Новоселівка Перша;ПЗ;село;Новоселівка Перша;вулиця;Шкільна;1б
район;NA;Ясинуватський;1425500000;Комунальне некомерційне підприємство «Центр первинної медико-санітарної допомоги Ясинуватської районної ради»;АЗПСМ смт Желанне;АМ;селище міського типу;Желанне;вулиця;Центральна;91
район;NA;Ясинуватський;1425500000;Комунальне некомерційне підприємство «Центр первинної медико-санітарної допомоги Ясинуватської районної ради»;АЗПСМ с. Первомайське;АМ;село;Первомайське;вулиця;Паркова;4
район;NA;Ясинуватський;1425500000;Комунальне некомерційне підприємство «Центр первинної медико-санітарної допомоги Ясинуватської районної ради»;АЗПСМ с. Орлівка;АМ;село;Орлівка;вулиця;Єлагіна;17
район;NA;Ясинуватський;1425500000;Комунальне некомерційне підприємство «Центр первинної медико-санітарної допомоги Ясинуватської районної ради»;ФП с. Нетайлове;ФП;село;Нетайлове;вулиця;Безкоровайного;1
район;NA;Ясинуватський;1425500000;Комунальне некомерційне підприємство «Центр первинної медико-санітарної допомоги Ясинуватської районної ради»;АЗПСМ с. Олександропіль;АМ;село;Олександропіль;вулиця;Молодіжна;21
район;NA;Ясинуватський;1425500000;Комунальне некомерційне підприємство «Центр первинної медико-санітарної допомоги Ясинуватської районної ради»;АЗПСМ смт Верхньоторецьке;АМ;селище міського типу;Верхньоторецьке;вулиця;Привокзальна;2
район;NA;Ясинуватський;1425500000;Комунальне некомерційне підприємство «Центр первинної медико-санітарної допомоги Ясинуватської районної ради»;ФП с. Красногорівка;ПЗ;село;Красногорівка;вулиця;Гагаріна;19
район;NA;Ясинуватський;1425500000;Комунальне некомерційне підприємство «Центр первинної медико-санітарної допомоги Ясинуватської районної ради»;ФАП с. Новобахмутівка;ПЗ;село;Новобахмутівка;вулиця;Мира;26б
район;NA;Ясинуватський;1425500000;Комунальне некомерційне підприємство «Центр первинної медико-санітарної допомоги Ясинуватської районної ради»;ФП с. Новоселівка-3;ПЗ;село;Новоселівка;вулиця;Центральна;10а
